Nombre,Resumen,Tipo de entidad,Categorías,Dirección (calle y nº),Dirección (resto),Dirección sin cp,C.P.,Dirección,Población,Provincia,Zona,Comunidad autónoma,Barrio,Distrito,Comarca,Ámbito,Latitud,Longitud,Teléfono 1,Teléfono 2,Fax,Correo electrónico 1,Correo electrónico 2,Web 1,Web 2,Año de creación,Forma jurídica,Descripción general,Objetivo como entidad,Finanzas,Valores sociales y medioambientales,Forma de acceso,Redes de las que forma parte,Otras entidades con las que colabora,Proyectos en marcha,Necesidades,Ofrecimientos,Información adicional,Fecha última actualización
Agiantza Time Bank - ATB,,Grupo/colectivo,Banco de tiempo - Municipal,"C/ Dos de Mayo, 20 bjo.",,"C/ Dos de Mayo, 20 bjo. ",48003,"C/ Dos de Mayo, 20 bjo. 48003",Bilbao,Vizcaya,,País Vasco,,,,,43.2568343,-2.9294646,944 154 988,,,agiantza@agiantza.org,,,,,,,,,,,,,,,,,2013-06-07 19:40:20
Aiztondo denbora bankua,,Grupo/colectivo,Banco de tiempo - Municipal,"Muñoa Kalea, 36 bajo","Bibliotecas: Aduna, Alkiza, Larraul","Bibliotecas: Aduna, Alkiza, Larraul - Muñoa Kalea, 36 bajo",20159,"Bibliotecas: Aduna, Alkiza, Larraul - Muñoa Kalea, 36 bajo 20159",Zizurkil,Gipuzkoa,,País Vasco,,,,,43.2097349,-2.0304287,943 693 930,,,aiztondokodenborabankua@gmail.com,,http://aiztondo.trukeados.net/,,,,,,,,,,,,,,,2013-11-28 09:04:28
Banc de Cultures,Banco del tiempo lingüístico y cultural,Otros,Banco de tiempo - Municipal,"Centre Flassaders C/ Ferreria, 10",4ª planta,"Centre Flassaders C/ Ferreria, 10 4ª planta",07002,"Centre Flassaders C/ Ferreria, 10 4ª planta 07002",Palma de Mallorca,Baleares,,Islas Baleares,,,,,39.5707789,2.6546575,971228756,,,bancdecultures@palma.es,,,,2014,,"El Banc de Cultures (Banco del Tiempo lingüístico y cultural) es un proyecto que surge a iniciativa del Área de Educación, Familia, Mayores e Immigración del Ayuntamiento de Palma. Pretende ser un espacio de convivencia entre personas de orígenes culturales diversos y de intercambio de conversación en catalán, castellano y otros idiomas y donde se podrán adquirir y compartir conocimientos de alrededor del mundo.",,,,,,,,,,,2015-02-19 14:57:53
Banc del Temps Barceloneta,,Grupo/colectivo,Banco de tiempo - Municipal,C/ Conreria 1-9,Centre Cívic Municipal,Centre Cívic Municipal - C/ Conreria 1-9,08003,Centre Cívic Municipal - C/ Conreria 1-9 08003,Barcelona,Barcelona,Ciutat Vella,Cataluña,Ciutat Vella,,,Barrio,41.3802854,2.1923587,932563312,,,bdt_barceloneta@hotmail.com,,http://www.facebook.com/bdtbarceloneta,,2007,,,,,,,,,,,,,2013-11-12 12:23:01
Banc del Temps Civis Canyelles,,Asociación,Banco de tiempo - Comunitario,Av. Daltmar 15,casa,Av. Daltmar 15 casa,08811,Av. Daltmar 15 casa 08811,Canyelles- El Garraf,Barcelona,Municipi de Canyelles,Cataluña,,,,Municipio,41.2861949,1.7196685,609 134 184  (Roser),605 678 628 (Carmen),no en tenim,associaciocivis@gmail.com,,https://www.facebook.com/civis.associacio,http://bancdetempsdecanyelles.blogspot.com.es/,2013,,"CIVIS-Canyelles és una entitat sense ànim de lucre adscrita al registre d'entitats de la Generalitat de Catalunya que vol promoure accions en ciutadania activa. La nostra primera actuació és el desenvolupament del BdT del nostre municipi: Canyelles- El Garraf-
Tenim una boseta,encara petita, de sòcis del BdT però de mica en mica es va sentit la nostra veu i la filosofia comunitària i solidària en el territori del nostre poble.
Ens agradaria  associar-nos ,estar informades/formades i col.laborar amb la vostra proposta",,,,,,,,,,,2014-04-08 09:01:04
Banc del Temps Club Maginet,Nuestro lema es PEDIR SIN MOLESTAR PARA DAR SIN OFENDER,Asociación,Banco de tiempo - Comunitario,Ramon y Cajal 39 7 2,,Ramon y Cajal 39 7 2 ,43001,Ramon y Cajal 39 7 2 43001,Tarragona,Tarragona,Toda  la ciudad,Islas Baleares,,,,Municipio,41.1161514,1.2447928,687424975,977243925,,clubmaginet.bancdeltemps@gmail.com,,,,2014,,COLGAMOS LA INFORMACION EN UNA PÀGINA DE FACEBOOK QUE SE LLAMA: BANC DEL TEMPS DEL CLUB MAGINET,,,,,,,,,,,2014-07-08 13:09:45
Banc del Temps d'Arenys,,Asociación,Banco de tiempo - Municipal,,, ,08350, 08350,Arenys de Mar,Barcelona,,Cataluña,,,,Municipio,41.5797073,2.5508683,,,,bancdeltempsdarenys@gmail.com,,,,,,,,,,,,,,,,,2015-02-19 15:00:26
Banc del Temps d'El Vendrell (Temps en Xarxa),,Grupo/colectivo,Banco de tiempo - Municipal,"Hotel d'Entitats, Cami Reial 13-17 1pis",,"Hotel d'Entitats, Cami Reial 13-17 1pis ",43700,"Hotel d'Entitats, Cami Reial 13-17 1pis 43700",El Vendrell,Tarragona,Baix Penedès,Cataluña,,,Baix Penedès,Comarca,41.2145828,1.5312694,977.66.40.02,,977.66.46.79,tempsenxarxa@gmail.com,,,,,,"Atenció al usuari i noves inscripcions:

dilluns, dimecres i divendres de 9:30-11:30.

QUÈ ÈS UN BANC DE TEMPS?
És una xarxa comunitària d’intercanvi de serveis que potencia l’ajuda  mútua i que fomenta la confiança en els altres en condicions d’igualtat. 
  Com funciona?  
El funcionament del BdT es basa en l’oferta i la demanda de serveis. Cada usuari proposa el que està disposat a oferir i, alhora, el que vol rebre. 
La moneda de canvi és el temps 
(1 hora d’ajuda = 1 hora de temps a pagar). 
  Com formar part del BdT?
Tothom pot formar part del banc de temps, només cal inscriure’s a la Secretaria del BdT. 
  Quins serveis es poden intercanviar? 
Els serveis que s'intercanvien els proposen els mateixos usuaris. Per exemple: 
• acompanyar gent gran a comprar
• practicar idiomes
• reparacions domèstiques
• passejar gossos
• passar textos a l'ordinador
• tasques de jardineria 
• assessorament laboral
•  art i artesania 
• assessorament i orientació general
• compres i comerç 
• cuina 
• cultura 
• tenir cura d'animals 
• esports i animació 
• informàtica i altres tecnologies
• lleure i entreteniment 
• obra i construcció 
• serveis a la comunitat 
• teràpies alternatives 
• transport 
• treballs de jardineria 
• treballs de la llar 
• etc",,,,,,,,,,,2014-12-18 17:41:22
Banc del Temps d'Horta,,Grupo/colectivo,Banco de tiempo - Municipal,"Plaça Santes Creus, 8",Centre Serveis Socials,"Centre Serveis Socials - Plaça Santes Creus, 8",08031,"Centre Serveis Socials - Plaça Santes Creus, 8 08031",Barcelona,Barcelona,,Cataluña,,,,,41.4303108,2.1622215,,,,bdthorta@gmail.com,,,,,,,,,,,,,,,,,2013-06-09 23:06:34
Banc del Temps de Breda,,Asociación,Banco de tiempo - Comunitario,,, ,17400, 17400,Breda,Girona,,Cataluña,,,,,,,,,,bancdetempsdebreda@gmail.com,,http://bancdetempsdebreda.wordpress.com/,,2011,,"El Banc de Temps de Breda és una associació sense cap ànim de lucre creada per iniciativa popular, independentment de qualsevol institució pública o partit polític. Es tracta d’una xarxa d’intercanvi de serveis entre els bredencs i les bredenques que en formen part, i també gent de Riells o Sant Feliu de Buixalleu, Arbúcies, Maçanet

Com a altres pobles del voltant, el Banc de Temps de Breda és fruit d’uns valors com la solidaritat: conèixer i treballar amb els nostres veïns; la igualtat: tothom disposa de temps, homes i dones, advocats o cambrers; i també, és clar, de la situació de crisi econòmica actual.",,,,,,,,,,,2014-01-15 10:51:26
Banc del Temps de Cabrera de Mar,,Grupo/colectivo,Banco de tiempo - Municipal,"Av. Pare Jaume Català, 30-36, local 4 ",,"Av. Pare Jaume Català, 30-36, local 4  ",08349,"Av. Pare Jaume Català, 30-36, local 4 08349",Cabrera de Mar,Barcelona,,Cataluña,,,,,41.527928,2.393603,93 750 62 88,667 183 136,,,bancdeltemps@cabrerademar.cat,http://bancdeltempscabrerademar.blogspot.com.es/,https://www.facebook.com/bancdeltempscabrerademar,,,"Som un grup de persones vinculades a Cabrera de Mar que volem compartir el nostre temps amb altra gent. Mitjançant els intercanvis coneixem gent, resolem petits problemes de la vida quotidiana i fem activitats socials.",,,,,,,,,,,2015-04-07 08:07:39
Banc del Temps de Cardedeu,,Asociación,Banco de tiempo - Comunitario,,, ,08440, 08440,Cardedeu,Barcelona,VALLÈS ORIENTAL,Cataluña,,,,Municipio,41.63857,2.357459,666780303,,,bancdeltempsdecardedeu@gmail.com,,http://bancdeltempsdecardedeu.blogspot.com.es/,http://aprencardedeu.blogspot.com.es/,2005,,"El Banco del tiempo de Cardedeu somos una entidad sin ánimo de lucro, creada en 2005, que tenemos como finalidad promover el intercambio de conocimientos, habilidades y servicios entre las personas para fomentar la comunidad, colaborar, ayudarnos, conversar, compartir momentos de ocio, aficiones, favorecer la reutilización y ahorrar. Actualmente la gestión de los intercambios se hace on line a través de los formularios de nuestro blog.
También impulsamos, desde octubre de 2010, los talleres de intercambio lingüístico ""Aprenem Cardedeu"": aprendemos la lengua que queremos y enseñamos la que sabemos leyendo y hablando. Cada miércoles por la tarde nos encontramos en la biblioteca del pueblo y aprovechamos este encuentro semanal también como un espacio presencial para informar a personas interesadas o facilitar el contacto para los intercambios.",,,,,,,,,,,2013-06-17 09:30:13
Banc del Temps de Dosrius,,Asociación,Banco de tiempo - Comunitario,C/ Sant Antoni 9,Rectoria Vella,Rectoria Vella - C/ Sant Antoni 9,08319,Rectoria Vella - C/ Sant Antoni 9 08319,Dosrius,Barcelona,,Cataluña,,,,,41.5946836,2.4060321,639349603,645930581,,,,http://bancdeltempsdosrius.blogspot.com.es/,http://www.bancdeltempsdosrius.org/,,,"Este es un proyecto auspiciado por el Ateneu Cultural y Social-Espacio Solidario 2 Rius, que tiene como objetivo el desarrollar toda una serie de colaboración, participación, cohesión y relaciónes de confinaza entre los usuarios y ciudadanos que creen en su filosofia, acepten su ideario y cumplan con la base fundamental, promover la reciprocidad como forma de intercambio ciudadano.",,,,,,,,,,,2013-06-12 23:52:57
Banc del Temps de Gavà (BATEGA),,Grupo/colectivo,Banco de tiempo - Municipal,"Rambla de Joaquim Vayreda, 3",Casal Municipal d'Entitats Sant Jordi,"Casal Municipal d'Entitats Sant Jordi - Rambla de Joaquim Vayreda, 3",08050,"Casal Municipal d'Entitats Sant Jordi - Rambla de Joaquim Vayreda, 3 08050",Gavà,Barcelona,Baix Llobregat,Cataluña,,,Baix Llobregat,Comarca,41.3049666,2.0080843,Telèfon 93 6333629 Horari: dimarts i dijous de 18 a 20 h.,"Telèfon 93 2639100, extensió 9222 Horari: divendres de 10 a 12 h.",,vobatega@gmail.com,,http://www.bancdeltempsgava.cat/,,,,"El Banc del Temps de Gavà és un projecte de millora de la convivència entre les persones a través de l'intercanvi del seu temps.

Aquest sistema d’intercanvi té per objectiu establir una xarxa d'ajuda mútua i reforçar els llaços comunitaris de Gavà i altres municipis.

És una iniciativa comunitària d'intercanvi, té simbòlicament el funcionament d'un banc, però en el qual allò que es ""presta"" i es ""rep"" és temps dedicat a serveis a les persones.

El Banc del Temps de Gavà (BATEGA) es va crear el 2008 i actualment està format per uns cent trenta-tres usuaris i usuàries que intercanvien el seu temps, habilitats i coneixements. ",,,,,,,,,,,2014-02-05 09:15:22
Banc del Temps de Gràcia,,Grupo/colectivo,Banco de tiempo - Comunitario,"Plaça Del Nord, 7-10 - Llüisos de Gràcia",,"Plaça Del Nord, 7-10 - Llüisos de Gràcia ",08024,"Plaça Del Nord, 7-10 - Llüisos de Gràcia 08024",Barcelona,Barcelona,,Cataluña,,,,,41.4072589,2.1555639,932 183 372 Ext.6,,,bancdeltempsgracia@lluisosdegracia.cat,,http://gracia.bdtonline.org/,,2004,,,,,,,,,,,,,2013-06-22 16:06:03
Banc del Temps de Granollers,,Asociación,Banco de tiempo - Municipal,Carrer Rec nº 19,Can Jonch,Can Jonch - Carrer Rec nº 19,08401,Can Jonch - Carrer Rec nº 19 08401,Granollers,Barcelona,Vallès Oriental,Cataluña,,,Vallès Oriental,Comarca,41.6095035,2.2850627,938426834,,,bancdeltempsgranollers@gmail.com,,https://www.facebook.com/bancdeltempsdegranollers,,2013,,"Els fins de l’associació són:
a) Fomentar la cooperació i la participació ciutadana a traves dels diferents serveis que es puguin oferir i rebre.
b) Oferir cobertura a les diferents necessitats dels ciutadans a traves de la solidaritat i la cooperació.
c) Potenciar valors de solidaritat, convivència i igualtat d'oportunitats.

Per aconseguir les seves finalitats, l’associació realitza les activitats següents:

Gestió de projectes en els àmbits de la cooperació, la solidaritat i la reciprocitat.

L'Associació no es prestarà a cap proselitisme polític ni religiós.

En queda exclòs tot ànim de lucre.
",,,,,,,,,,,2015-02-24 09:10:24
"Banc del Temps de la Garrotxa ""BaTeGa""",,Asociación,Banco de tiempo - Comunitario,"Passeig d'en Blai, núm. 6",,"Passeig d'en Blai, núm. 6 ",17800,"Passeig d'en Blai, núm. 6 17800",Olot,Girona,,Cataluña,,,,,42.1822078,2.4880242,972263411,972263411,,banctempsgarrotxa@gmail.com,,http://bategabdtgarrotxa.wordpress.com/,http://www.bdtgarrotxa.org/,2013,,"La finalitat del Banc del Temps de la Garrotxa ""BATEGA"" és convertir el teu temps lliure en temps compartit, bàsicament la de intercanviar necessitats per habilitats, sense ànim de lucre ni cap mediació monetària. L'usuari rep un servei i/o formació d’ algú altre durant un període de temps, i es compromet a prestar un servei igualment prolongat. És a dir, “el troc funciona a través de crèdits mutus en forma de temps”. Cada usuari rep un talonari per efectuar els pagaments, i és titular d’un “compte corrent” que registra el saldo de temps disponible. La unitat d'intercanvi és l'hora, independentment del servei que s'ofereixi o que es rebi. Cada servei, coneixement o habilitat intercanviada té el mateix valor, mesurat en unitats de temps, independentment que el donant sigui un principiat o un expert.
Les transaccions es regulen amb el intercanvi físic d'uns xecs de temps, que es donen en forma de talonari als socis del banc. Una secretaria centralitza la gestió d'ofertes i demandes, posant en contacte a les persones, i controlant l'estat de saldo de les hores donades i rebudes.
Els intercanvis no són bilaterals (“jo et dono i tu em dones”) si no multilaterals: s’ofereix oferta i demanda a una borsa de serveis, coneixements i habilitats del Banc de temps de forma que la persona A ajuda a B, B ajuda a C, C ajuda a D, i D ajuda a A.

Solidaritat, intercanvi de temps: Coneixements, talents i molt més! ",,,,,,,,,,,2013-11-18 10:11:33
Banc del Temps de La Noguera,,Asociación,Banco de tiempo - Comunitario,"Sant Lluis, 2-ppal. 2ª",,"Sant Lluis, 2-ppal. 2ª ",25600,"Sant Lluis, 2-ppal. 2ª 25600",Balaguer,Lleida,,Cataluña,,,,,41.7932526,0.8096489,973450451,,973443615,bdtlanoguera@gmail.com,,http://www.bdtlanoguera.org/,,2011,,,,,,,,,,,,,2013-11-18 10:31:59
Banc del Temps de Lleida,,Asociación,Banco de tiempo - Comunitario,"Carrer Pau Claris, 10 ",,"Carrer Pau Claris, 10  ",25008,"Carrer Pau Claris, 10 25008",Lleida,Lleida,,Cataluña,,,,,41.6221819,0.6219152,744408679,,,secretaria@bancdetemps.org,,http://www.bancdetemps.org/,,2013,,,,,,,,,,,,,2014-07-22 21:00:35
Banc del Temps de Maçanet de la Selva,,Otros,Banco de tiempo - Municipal,Avinguda Catalunya 13,Edifici de Can Falló,Avinguda Catalunya 13 Edifici de Can Falló,17412,Avinguda Catalunya 13 Edifici de Can Falló 17412,Maçanet de la Selva,Girona,La Selva,Cataluña,,,La Selva,Comarca,41.77829,2.73085,972165651,681265644,,clopez@massanetdelaselva.cat,,http://www.massanetdelaselva.cat/,,2015,,,,,,,,,,,,,2015-02-12 10:29:43
Banc del Temps de Menorca-Alaior,Banc del Temps Menorca (secretaria d'Alaior),Grupo/colectivo,Banco de tiempo - Comunitario,"C/ des Forn, 9",7730,"C/ des Forn, 9 7730",,"C/ des Forn, 9 7730 ",Alaior,Baleares,,Islas Baleares,,,,,39.933711,4.1403514,,,,bancdeltempsmenorca@gmail.com,,http://www.bancdeltempsmenorca.wordpress.com/,,,,,,,,,,,,,,,2013-06-17 12:24:54
Banc del Temps de Montmeló,,Asociación,Banco de tiempo - Municipal,C/ Folch i Torras s/n,"Centre cultural La Torreta, Casal d'entitats","Centre cultural La Torreta, Casal d'entitats - C/ Folch i Torras s/n",08160,"Centre cultural La Torreta, Casal d'entitats - C/ Folch i Torras s/n 08160",Montmeló,Barcelona,Montmeló i Montornès del Vallès,Cataluña,,,,Municipio,41.5492171,2.2497083,935212582,,,bancdeltemps.montmelo@gmail.com,,http://montmelobancdeltemps.blogspot.com.es/,,2012,,"Com a Banc del temps ens proposem recuperar el concepte de veïns, de poble, enfortir les relacions entre els veïns del poble, que ens coneguem millor.
A part d'intercanvi de serveis, també organitzem activitats en grups (tallers de sabó ecològic per la roba, per les mans, de cant i veu, dieta mediterrània, etc).
També organitzem 2 ó 3 cops l'any una trobada entre socis per conèixer-nos millor, on cadascú porta una mica de menjar i beure.
En quan al Telf de contacte i l'horari d'atenció al públic, estem els dimecres de 17-19h ",,,,,,,,,,,2014-03-31 09:35:12
Banc del Temps de Montornès del Vallès (La Xarxa),Intercanvia el teu temps!,Otros,Banco de tiempo - Municipal,"C. De la Casa Nova, 18",,"C. De la Casa Nova, 18 ",08170,"C. De la Casa Nova, 18 08170",Montorès del Vallès,Barcelona,,Cataluña,,,,,41.553409,2.2649424,,,,,,,,2014,,,,,,,,,,,,,2014-04-08 09:02:57
Banc del Temps de Platja D'Aro,,Centro social,Banco de tiempo - Municipal,Carrer Escoles nº  2,,Carrer Escoles nº  2 ,17250,Carrer Escoles nº 2 17250,Platja d'Aro,Girona,Baix Empordà,Cataluña,,,Baix Empordà,Comarca,41.8179345,3.0640574,972818341,678797466,,ccivic@platjadaro.com,,,,2014,,"Banc del Temps municipal.
Que trata de cohesionar las personas que vivien en el municipio, que por su caracteristica estacional necesita de acciones que pongan en contacto a las personas.",,,,,,,,,,,2014-07-24 08:12:33
Banc del Temps de Sant Celoni,,Asamblea,Banco de tiempo - Comunitario,"Alguersuari, 16",La Clau,"La Clau - Alguersuari, 16",08470,"La Clau - Alguersuari, 16 08470",Sant Celoni,Barcelona,,Cataluña,,,,,41.6863404,2.4899321,,,,bdtstceloni@gmail.com,,http://bdtstceloni.blogspot.com/,https://www.facebook.com/bdtstceloni,2013,,"Banc de Temps de Sant Celoni: Intercanvi de serveis amb la moneda temps. 

Acull el projecte ""La clau"": una associació cultural sense ànim de lucre que vol esdevenir un espai d'unió d'entitats i de ciutadans i ciutadanes del Baix Montseny amb una voluntat clara de promoure l'organització, la cultura popular, l'oci alternatiu, la reflexió crítica i l'acció dels ciutadans, per a la transformació social i nacional de les nostres viles.",,,,,,,,,,,2013-10-23 11:19:07
Banc del Temps de Sant Sadurní d'Anoia,,Grupo/colectivo,Banco de tiempo - Municipal,"C/ Marc Mir, 15",,"C/ Marc Mir, 15 ",08770,"C/ Marc Mir, 15 08770",Sant Sadurní d'Anoia,Barcelona,,Cataluña,,,,,41.4242091,1.7892129,606953713,,-,bdtsantsa@gmail.com,,,,2014,,Intercanvio de servicios entre asociados.,,,,,,,,,,,2014-09-04 11:02:04
Banc del temps de Santa Cristina d'Aro,,Otros,Banco de tiempo - Municipal,"Passatge Pompeu Fabra, 2",,"Passatge Pompeu Fabra, 2 ",17246,"Passatge Pompeu Fabra, 2 17246",Santa Cristina d'Aro,Girona,Baix Empordà,Cataluña,,,Baix Empordà,Comarca,41.8137777,2.9972986,972837391,,,igualtat@santacristina.net,,http://www.santacristina.net/ca/banc_del_temps.html,,2012,,,,,,,,,,,,,2013-12-02 10:00:12
Banc del Temps de Tàrrega,,Asociación,Banco de tiempo - Municipal,"C/Segle XX, 2",3er pis. Centre d'Entitats,"C/Segle XX, 2 3er pis. Centre d'Entitats",25300,"C/Segle XX, 2 3er pis. Centre d'Entitats 25300",Tàrrega,Lleida,Comarca de l'Urgell,Cataluña,,,Comarca de l'Urgell,Comarca,41.6496245,1.1375079,973314151,,,bancdetempsdetarrega@gmail.com,,http://www.bancdetempsdetarrega.blogspot.com/,,2014,,,,,,,,,,,,,2014-05-20 21:45:48
Banc del Temps de Vilafranca del Penedès,,Otros,Banco de tiempo - Comunitario,,, ,, ,Vilafranca del Penedès,Barcelona,,Cataluña,,,,,41.3461265,1.6979398,938 171 995,,,rgarcia@vilafranca.org,,https://bdtvilafranca.wordpress.com/,,2015,,"Es tracta d’un sistema gratuït d’intercanvi de serveis, tasques puntuals, habilitats, coneixements i relacions entre persones, que pren el temps com a unitat de valor i de canvi. 
La mesura dels intercanvis és l’hora, amb independència del tipus de serveis que s’intercanviïn.",,,,,,,,,,,2015-05-27 12:27:08
Banc del Temps de Vilanova i la Geltrú,,Otros,Banco de tiempo - Municipal,Plaça dels Alumnes Obrers s/n,Centre Cívic de la Geltrú,Centre Cívic de la Geltrú - Plaça dels Alumnes Obrers s/n,08800,Centre Cívic de la Geltrú - Plaça dels Alumnes Obrers s/n 08800,Vilanova i la Geltrú,Barcelona,,Cataluña,,,,,41.2151504,1.727446,Ajuntament de Vilanova 938140000 (ext 2047) ,Centre Cívic de la Geltrú (93 814 7406),,nucliantic@vilanova.cat,sruiz@vilanova.cat,,,,,"Horari d'atenció al públic al Centre Cívic de la Geltrú:

Divendres de 18h a 20h (de novembre a març) i de 17 a 19h d'abril a octubre (agost tancat) ",,,,,,,,,,,2013-11-18 10:41:06
Banc del Temps del Berguedà,,Grupo/colectivo,Banco de tiempo - Comunitario,"C/ del Roser, 35",Baixos,"C/ del Roser, 35 Baixos",08600,"C/ del Roser, 35 Baixos 08600",Berga,Barcelona,Berguedà,Cataluña,,,Berguedà,Comarca,42.1012595,1.8439221,620000064,,,berguedabdt@gmail.com,,http://bancdeltempsbergueda.wordpress.com/,,,,,,,,,,,,,,,2014-01-07 09:26:43
Banc del Temps del Moianès,,Asamblea,Banco de tiempo - Comunitario,"Centre Cívic Can Carner. C/ de les Joies, 11.",,"Centre Cívic Can Carner. C/ de les Joies, 11. ",08180,"Centre Cívic Can Carner. C/ de les Joies, 11. 08180",Moià,Barcelona,Comarca del Moianès,Cataluña,,,Comarca del Moianès,Comarca,41.8122247,2.0976547,627 499 452,648 807 902,,BdTmoianes@inventati.org,,https://bancdeltempsdelmoianes.wordpress.com/,,2014,,Banc del Temps independent que agrupa diversos pobles del Moianès.,,,,,,,,,,,2015-06-24 10:15:30
Banc del Temps del Prat de Llobregat,,Asociación,Banco de tiempo - Comunitario,"Plaça de l'Agricultura, 4",,"Plaça de l'Agricultura, 4 ",08820,"Plaça de l'Agricultura, 4 08820",El Prat de Llobregat,Barcelona,Baix Llobregat,Cataluña,,,Baix Llobregat,Comarca,41.3247670713,2.09309716295,,,,bdtelprat@gmail.com,,http://www.bdtelprat.cat/,,2014,,,,,,,,,,,,,2014-10-28 13:17:47
Banc del Temps del Solsonès,,Otros,Banco de tiempo - Comunitario,"C/ Dominics, 12",Palau Llobera,"Palau Llobera - C/ Dominics, 12",25280,"Palau Llobera - C/ Dominics, 12 25280",Solsona,Lleida,Catalunya Central,Cataluña,,,Catalunya Central,Comarca,41.9953022,1.5192354,973482003,,973482514,,,http://www.bancdeltempsdelsolsones.wordpress.com/,,2012,,,,,,,,,,,,,2015-02-10 11:58:14
Banc del Temps El Masnou,,Asociación,Banco de tiempo - Municipal,"C/ Segarra, 12",Espai Cívic Els Vienesos,"Espai Cívic Els Vienesos - C/ Segarra, 12",08320,"Espai Cívic Els Vienesos - C/ Segarra, 12 08320",El Masnou,Barcelona,,Cataluña,,,,,41.5059585,2.2781865,935 571 880,,,bdtelmasnou@gmail.com,,,,2012,,,,,,,,,,,,,2013-11-28 09:35:23
Banc del Temps Gornal – L'Hospitalet,,Grupo/colectivo,Banco de tiempo - Comunitario,"Calle Joncs, 12",local,"Calle Joncs, 12 local",08902,"Calle Joncs, 12 local 08902",L'Hospitalet de Llobregat,Barcelona,,Cataluña,,,,,41.3579037,2.1185028,934036705,934036935,,banctempsgornal@gmail.com,yriera@l-h.cat,https://www.facebook.com/BancdeltempselGornal,,2015,,"El Gornal es un barrio de la ciudad de L'Hospitalet de Llobregat. El proyecto nace en él y tiene dimensión de Ciudad. La Secretaria està formada por 7 miembros, vecinos y vecinas que gestionan con ilusión esta reciente iniciativa.",,,,,,,,,,,2015-07-28 09:32:59
Banc del Temps La Canonja,,Centro social,Banco de tiempo - Municipal,Plaça Catalunya s/n,Centre Civic La Canonja,Centre Civic La Canonja - Plaça Catalunya s/n,43110,Centre Civic La Canonja - Plaça Catalunya s/n 43110,La Canonja,Tarragona,Tarragonés (comarca),Cataluña,,,Tarragonés,Comarca,41.1232347,1.1789095,977 540 510,,,bancdeltemps@lacanonja.cat,,,,2014,,Banc del temps amb el suport de la regidoria d'Acció Social de l'Ayuntament de La Canonja (TARRAGONA),,,,,,,,,,,2014-07-08 13:11:50
Banc del Temps La Sagrera,,Grupo/colectivo,Banco de tiempo - Comunitario,"Hondures, 28 - 30",Nau Ivanow,"Nau Ivanow - Hondures, 28 - 30",08027,"Nau Ivanow - Hondures, 28 - 30 08027",Barcelona,Barcelona,,Cataluña,,,,,41.4199544,2.1899933,,,,bdt.lasagrera@gmail.com,,http://lasagrera.bdtonline.org/,,2012,,,,,,,,,,,,,2013-06-09 23:38:36
Banc del Temps Pineda de Mar,,Asociación,Banco de tiempo - Comunitario,C/ Ignasi Iglesias 32,,C/ Ignasi Iglesias 32 ,08397,C/ Ignasi Iglesias 32 08397,Pineda de Mar,Barcelona,Maresme,Cataluña,,,Maresme,Comarca,41.6229683,2.6894033,660074447,,,bancdeltempspinedademar@gmail.com,,,,2011,,,,,,,,,,,,,2013-09-30 09:36:46
Banc del Temps Trinitat Vella,,Grupo/colectivo,Banco de tiempo - Municipal,"C/ Foradada, 36-38",,"C/ Foradada, 36-38 ",08033,"C/ Foradada, 36-38 08033",Barcelona,Barcelona,Trinitat Vella (Districte Sant Andreu),Cataluña,,Trinitat Vella (Districte Sant Andreu),,Distrito,41.4516211,2.1911907,933457016,,,bancdeltempstrinitatvella@gmail.com,,http://trinitatvella.bdtonline.org/,,2011,,"Horario de atención:
lunes de 12 a 14 horas
jueves de 16 a 18 horas",,,,,,,,,,,2013-09-04 11:48:06
Banco de Tiempo Alta Ribagorza,,Grupo/colectivo,Banco de tiempo - Municipal,Ctra. De Francia,,Ctra. De Francia ,22440,Ctra. De Francia 22440,Benasque,Huesca,,Aragón,,,,,42.6042858,0.5228286,974 551 738 / 678 493 035,,,acabenas@gmail.com,,,,,,,,,,,,,,,,,2013-06-07 19:41:27
Banco de Tiempo Alto Palancia,,Grupo/colectivo,Banco de tiempo - Municipal,"C/ San Gil, 35",,"C/ San Gil, 35 ",12470,"C/ San Gil, 35 12470",Navajas,Castellón,,Comunidad Valenciana,,,,,39.8769446,-0.5075974,964 132 053 / 627 285 935,,,bdtpalancia@live.com,,,,,,,,,,,,,,,,,2013-06-07 19:41:47
Banco de Tiempo Ampa CP Eugenio López,,Grupo/colectivo,Banco de tiempo - Municipal,"Pl. Bisbe Berenguer de Palou, 6",,"Pl. Bisbe Berenguer de Palou, 6 ",07003,"Pl. Bisbe Berenguer de Palou, 6 07003",Palma De Mallorca,Baleares,,Islas Baleares,,,,,39.576281,2.6491207,971 710 019 escola,695 67 44 34 ampa,,bdt.pl.patins@gmail.com,,,,,,,,,,,,,,,,,2013-11-28 09:58:23
Banco de Tiempo Andreberri - La Peña,,Grupo/colectivo,Banco de tiempo - Municipal,"Pl. Iharra, s/n",,"Pl. Iharra, s/n ",48003,"Pl. Iharra, s/n 48003",Arrigorriaga,Vizcaya,,País Vasco,,,,,43.2294405,-2.9225893,944 162 388,,,andre-berri@euskalnet.net,,,,,,,,,,,,,,,,,2013-06-07 19:42:14
Banco de Tiempo Área Metropolitna de Tenerife,,Grupo/colectivo,Banco de tiempo - Municipal,"Avda. Trinidad, Bloque 15, bajo izq.",Local de la Fed. Ecologista Ben Magec.,"Local de la Fed. Ecologista Ben Magec. - Avda. Trinidad, Bloque 15, bajo izq.",38204,"Local de la Fed. Ecologista Ben Magec. - Avda. Trinidad, Bloque 15, bajo izq. 38204",La Laguna,Santa Cruz de Tenerife,Área metropolitana y municipios cercanos. ,Canarias,,,,Municipio,28.4702191,-16.2742802, 661 181 235 (Esther),616 629 161 (Cristina),,btiemposctenerife@hotmail.es,,https://communities.cyclos.org/tenerife#home,,2010,,"El Banco del Tiempo del Área Metropolitana de Tenerife, promueve intercambios de servicios y productos, pagados con tiempo, entre usuarios mayores de edad (socios), que estén dados de alta en el sistema. 

Ofrece la oportunidad de que la gente se conozca y confíe en los demás para resolver necesidades de la vida diaria, de esta forma se intenta mejorar la calidad de vida de las personas y dinamizar la vida local.",,,,,,,,,,,2014-04-30 08:07:52
Banco de Tiempo Asociación AKIBA,,Asociación,Banco de tiempo - Municipal,"C/ Manuel Cano, 1",,"C/ Manuel Cano, 1 ",18320,"C/ Manuel Cano, 1 18320",Santa Fe,Granada,,Andalucía,,,,,37.1918657,-3.7093813,958 440 680,,,info@akiba.org.es,,,,,,,,,,,,,,,,,2013-12-04 09:36:01
Banco de Tiempo Asociación Amalgama Social,,Grupo/colectivo,Banco de tiempo - Municipal,C/ Real 59, 1º - Sede NB Psicología,C/ Real 59  1º - Sede NB Psicología,28400,C/ Real 59 1º - Sede NB Psicología 28400,Collado Villalba,Madrid,,Comunidad de Madrid,,,,,40.6315194,-4.0049714,603 804 341,,,info@amalgamasocial.org,,,,,,,,,,,,,,,,,2013-12-04 09:37:35
Banco de Tiempo Asociación Tierra Aurinko,,Grupo/colectivo,Banco de tiempo - Municipal,"Pl. Fernando VI, s/n",,"Pl. Fernando VI, s/n ",28830,"Pl. Fernando VI, s/n 28830",San Fernando de Henares,Madrid,,Comunidad de Madrid,,,,,40.4254336,-3.5314076,914 851 407 / 606 204 108,,,tierraurinko@gmail.com,,,,,,,,,,,,,,,,,2013-12-04 09:39:36
Banco de Tiempo Badalona,,Grupo/colectivo,Banco de tiempo - Municipal,,, ,, ,Badalona,Barcelona,,Cataluña,,,,,41.4469883,2.2450325,,,,,,,,,,,,,,,,,,,,,2013-06-07 19:43:15
Banco de Tiempo Baja Ribagorza,,Grupo/colectivo,Banco de tiempo - Municipal,"C/ Horno, 10 - Casa Luisa",,"C/ Horno, 10 - Casa Luisa ",22439,"C/ Horno, 10 - Casa Luisa 22439",Secastilla,Huesca,,Aragón,,,,,42.1866219,0.2526163,974 551 242 / 630 172 405,,,amerijoe@hotmail.com,antocina3@gmail.com,,,,,,,,,,,,,,,,2013-06-07 19:43:25
Banco de Tiempo Calpe,,Grupo/colectivo,Banco de tiempo - Comunitario,C/Blasco ibañez nº4 ,,C/Blasco ibañez nº4  ,03710,C/Blasco ibañez nº4 03710,Calpe,Alicante,,Comunidad Valenciana,,,,,38.6436469,0.0456876000001,630349739,,,bancodetiempocalpe@gmail.com,,,,2014,,,,,,,,,,,,,2015-01-29 11:34:48
Banco de Tiempo Casco Viejo de Pamplona,,Grupo/colectivo,Banco de tiempo - Municipal,"C/ Aldapa, 3-5",,"C/ Aldapa, 3-5 ",31001,"C/ Aldapa, 3-5 31001",Pamplona,Navarra,,Comunidad Foral de Navarra,,,,,42.8194823,-1.6435014,644 443 101,,,bdtpamplona@bdtpamplona.org,,,,,,,,,,,,,,,,,2013-06-07 19:43:44
Banco de Tiempo CEAIN,,Grupo/colectivo,Banco de tiempo - Municipal,"C/ Cartuja, 2",1º B,"C/ Cartuja, 2 1º B",11401,"C/ Cartuja, 2 1º B 11401",Jerez De La Frontera,Málaga,,Andalucía,,,,,36.6808368,-6.1299526,956 349 585 / 956 330 926,,,bancodeltiempoceain@acoge.org,,,,,,,,,,,,,,,,,2013-06-09 23:46:31
Banco de Tiempo Centro de mayores mediterráneo,,Grupo/colectivo,Banco de tiempo - Municipal,"C/ Picos, s/n",,"C/ Picos, s/n ",04004,"C/ Picos, s/n 04004",Almería,Almería,,Andalucía,,,,,40.38,-3.86,,,,,,,,,,,,,,,,,,,,,2013-06-07 19:44:25
Banco de Tiempo Ciudad Jardín,,Asociación,Banco de tiempo - Municipal,C/ Monda 21,,C/ Monda 21 ,29014,C/ Monda 21 29014,Málaga,Málaga,,Andalucía,,,,,36.7403102,-4.4204944,,,,,,,,,,,,,,,,,,,,,2014-01-13 09:04:07
Banco de Tiempo Córdoba Acoge,,Grupo/colectivo,Banco de tiempo - Municipal,"C/ Músico Ziryab, 10",,"C/ Músico Ziryab, 10 ",14005,"C/ Músico Ziryab, 10 14005",Córdoba,Córdoba,,Andalucía,,,,,37.8861218,-4.7923983,957 230 838,,,bancodeltiempo@cordoba-acoge.com,,,,,,,,,,,,,,,,,2013-06-07 19:44:37
Banco de Tiempo de Abegondo,,Grupo/colectivo,Banco de tiempo - Municipal,,, ,15318, 15318,Abegondo,A Coruña,,Galicia,,,,,43.2191196,-8.2979048,981 647 909,,,,,,,,,,,,,,,,,,,,2013-06-07 19:45:17
Banco de Tiempo de Alaró,,Grupo/colectivo,Banco de tiempo - Municipal,"Placeta Son Togores, 1",,"Placeta Son Togores, 1 ",07340,"Placeta Son Togores, 1 07340",Alaró,Baleares,,Islas Baleares,,,,,39.7077604,2.7895104,971 518 757,,,,,,,,,,,,,,,,,,,,2013-06-10 00:03:57
Banco de Tiempo de Albacete,,Grupo/colectivo,Banco de tiempo - Municipal,"C/ Arquitecto Vandelvira, 73",sala 4,"C/ Arquitecto Vandelvira, 73 sala 4",02003,"C/ Arquitecto Vandelvira, 73 sala 4 02003",Albacete,Albacete,,Castilla-La Mancha,,,,,38.9901709,-1.8661602,,,,bdtalbacete@gmail.com,,,,,,,,,,,,,,,,,2013-10-28 09:01:40
Banco de Tiempo de Alburquerque,,Grupo/colectivo,Banco de tiempo - Municipal,Apdo. de Correos 21,,Apdo. de Correos 21 ,06510,Apdo. de Correos 21 06510,Alburquerque,Badajoz,,Extremadura,,,,,38.9211919,-6.3373143,924 105 901 / 607 647 213,,,cala@nodo50.org,,,,,,,,,,,,,,,,,2013-06-09 23:50:14
Banco de Tiempo de Alcalá de Henares,,Grupo/colectivo,Banco de tiempo - Municipal,"Travesía de las Siete Esquinas, 2",,"Travesía de las Siete Esquinas, 2 ",28801,"Travesía de las Siete Esquinas, 2 28801",Alcalá de Henares,Madrid,,Comunidad de Madrid,,,,,40.4795438,-3.3676134,918 771 720 / 918 788 109,,,cmujeralcala@ayto-alcaladehenares.es,,,,,,,,,,,,,,,,,2013-06-07 19:45:44
Banco de Tiempo de Alcalá la Real,,Asociación,Banco de tiempo - Comunitario,Avda Iberoamérica s/n,Casa de la Juventud,Casa de la Juventud - Avda Iberoamérica s/n,23680,Casa de la Juventud - Avda Iberoamérica s/n 23680,Alcalá la Real,Jaén,Ciudad y pedanías,Andalucía,,,,Municipio,37.4547388,-3.9264281,,,,bancotiempoalcalareal@gmail.com,,,,2012,,"Asociación sin ánimo de lucro, cuya finalidad es promover el intercambio de tiempo entre personas asociadas. Creando redes de cooperación y ayuda mutua intervecinal.

Las actividades o intercambios no deberán nunca ser remuneradas económicamente, ni constituir relaciones de
trabajo, o ser consideradas como actividad económica o comercial alguna. 

Esta asociación constituida como banco de tiempo comunitario, no solicita ningún tipo de subvención. Por lo que es una asociación totalmente independiente y autogestionada.

Para información e inscripciones estamos disponibles en la casa de la Juventud, sala 3, todos los Miércoles de 18 a 20 horas. Te esperamos. ;)",,,,,,,,,,,2015-05-27 12:28:10
Banco de Tiempo de Alcañiz,,Grupo/colectivo,Banco de tiempo - Municipal,,, ,, ,,Teruel,,Castilla y León,,,,,40.341839,-1.103675,,,,,,,,,,,,,,,,,,,,,2013-06-07 19:46:26
Banco de Tiempo de Alcorcón,,Grupo/colectivo,Banco de tiempo - Municipal,"C/ Copenhague, 57",,"C/ Copenhague, 57 ",28922,"C/ Copenhague, 57 28922",Alcorcón,Madrid,,Comunidad de Madrid,,,,,40.3429393,-3.8462533,916 891 756 / 916 419 840,,,,,,,,,,,,,,,,,,,,2013-06-07 19:46:30
Banco de Tiempo de Alcosa,,Asamblea,Banco de tiempo - Comunitario,"Calle Pintor Alfonso Grosso, s/n.",Centro Civico Parque Alcosa,"Centro Civico Parque Alcosa - Calle Pintor Alfonso Grosso, s/n.",41019,"Centro Civico Parque Alcosa - Calle Pintor Alfonso Grosso, s/n. 41019",Sevilla,Sevilla,,Andalucía,,,,,37.411826,-5.9236711,627438035,,,contacto@btalcosa.com,,http://btalcosa.com/,,2013,,,,,,,,,,,,,2013-07-02 09:21:12
Banco de Tiempo de Aldea Bierzo,,Grupo/colectivo,Banco de tiempo - Municipal,"C/ Ángel Basante, 15, 2ª pl.",,"C/ Ángel Basante, 15, 2ª pl. ",24540,"C/ Ángel Basante, 15, 2ª pl. 24540",Cacabelos León,León,,Castilla y León,,,,,42.5987263,-5.5670959,987 549 359,,,aldeabierzo@hotmail.com,,,,,,,,,,,,,,,,,2013-06-07 19:46:37
Banco de Tiempo de Alfaz del Pi,,Grupo/colectivo,Banco de tiempo - Municipal,"C/ de Gabriel Miró, 3",,"C/ de Gabriel Miró, 3 ",,"C/ de Gabriel Miró, 3 ",,Alicante,,Comunidad Valenciana,,,,,38.3430705,-0.4847656,965887598 /  685 285 66,,,,,,,,,,,,,,,,,,,,2013-06-07 19:46:41
Banco de Tiempo de Algeciras,,Grupo/colectivo,Banco de tiempo - Municipal,"C/ de Regino Martínez, 3 - As. De Mujeres Progresistas",,"C/ de Regino Martínez, 3 - As. De Mujeres Progresistas ",11201,"C/ de Regino Martínez, 3 - As. De Mujeres Progresistas 11201",Algeciras,Cádiz,,Andalucía,,,,,36.1357631,-5.4397825,956 633 299,,,asociacion@ampvictoriakent.org,,,,,,,,,,,,,,,,,2013-06-07 19:46:48
Banco de Tiempo de Alhama de Murcia,,Grupo/colectivo,Banco de tiempo - Municipal,"Pl. de la Constitución, s/n",,"Pl. de la Constitución, s/n ",30840,"Pl. de la Constitución, s/n 30840",Alhama de Murcia,Murcia,,Región de Murcia,,,,,37.8513564,-1.4265832,968 630 000,,,,,,,,,,,,,,,,,,,,2013-06-07 19:46:53
Banco de Tiempo de Alhaurín de la Torre,,Asociación,Banco de tiempo - Comunitario,C/Caldera S/N,"Centro de Servicios Sociales Comunitarios, planta baja","Centro de Servicios Sociales Comunitarios, planta baja - C/Caldera S/N",29130,"Centro de Servicios Sociales Comunitarios, planta baja - C/Caldera S/N 29130",Alhaurín de la Torre,Málaga,,Andalucía,,,,,36.660677,-4.568914,603 421 747,,,bancodeltiempoalhaurintorre@gmail.com,,,,2012,,"Facebook (Me gusta): Banco del Tiempo Alhaurin de la Torre 

Horario de oficina --> LUNES DE 10:00H A 13:00H
",,,,,,,,,,,2013-12-19 11:47:30
Banco de Tiempo de Alicante,,Grupo/colectivo,Banco de tiempo - Municipal,"C/ Hércules, 28 - bajo",,"C/ Hércules, 28 - bajo ",03006,"C/ Hércules, 28 - bajo 03006",Alicante,Alicante,,Comunidad Valenciana,,,,,38.347014,-0.511628,965 259 460,,,banco.tiempo@alicante-ayto.es,,,,2000,,,,,,,,,,,,,2014-08-11 10:04:15
Banco de Tiempo de Aljarafe,,Asociación,Banco de tiempo - Municipal,Centro de Adultos. c/ de la Fuente s/n,,Centro de Adultos. c/ de la Fuente s/n ,41120,Centro de Adultos. c/ de la Fuente s/n 41120,Gelves,Sevilla,Aljarafe (Sevilla),Andalucía,Aljarafe,,,Barrio,37.3409234,-6.0262352,955 762 943/ 954 180 811 / 955 761 184,,,bancodeltiempoaljarafe@gmail.com,,,,2011,,"Asociación sin ánimo de lucro. El objetivo que persigue es facilitar e impulsar el conocimiento y contacto humano entre personas próximas por vecindad o comunidad de intereses, fomentando el espíritu altruista, la generosidad e interdependencia.",,,,,,,,,,,2013-10-15 17:52:31
Banco de Tiempo de Allariz,,Grupo/colectivo,Banco de tiempo - Municipal,"Rúa do Portelo, 4, baixo",,"Rúa do Portelo, 4, baixo ",32660,"Rúa do Portelo, 4, baixo 32660",Allariz,Ourense,,Galicia,,,,,42.1894665,-7.8005522,654 521 917 / 609 477 570,,,info@bancodetempodeallariz.org,,,,,,,,,,,,,,,,,2013-06-07 19:47:10
Banco de Tiempo de Almendralejo,,Grupo/colectivo,Banco de tiempo - Municipal,"C/ de Vistahermosa, 1A",,"C/ de Vistahermosa, 1A ",06200,"C/ de Vistahermosa, 1A 06200",Almendralejo,Badajoz,,Extremadura,,,,,38.6823707,-6.4014208,924 670 532 (ext. 232),,,bancodeltiempoalmendralejo@hispavista.com,,,,,,,,,,,,,,,,,2013-06-07 19:47:15
Banco de Tiempo de Almería,,Grupo/colectivo,Banco de tiempo - Municipal,"Calle Alcalde Muñoz,12",,"Calle Alcalde Muñoz,12 ",04007,"Calle Alcalde Muñoz,12 04007",Almeria,Almería,,Andalucía,,,,,36.8420358,-2.461659,950210073,,,bdtalmeria@gmail.com,,http://www.mujeralmeria.es/,,2012,,"Banco del tiempo gestionado por el area de políticas de Igualdad del Ayto. de Almería. 
www.mujeralmeria.es",,,,,,,,,,,2013-06-17 09:26:59
Banco de Tiempo de Alora,,Grupo/colectivo,Banco de tiempo - Municipal,"Pl. de la Fuente Arriba, s/n",,"Pl. de la Fuente Arriba, s/n ",29500,"Pl. de la Fuente Arriba, s/n 29500",Alora,Málaga,,Andalucía,,,,,36.8229926,-4.7066498,951 0662 138,,,,,,,,,,,,,,,,,,,,2013-06-07 19:47:26
Banco de Tiempo de Altea,,Asamblea,Banco de tiempo - Comunitario,,, ,03590, 03590,Altea,Alicante,,Comunidad Valenciana,,,,,38.6021629,-0.0476697,659 75 11 51,,,bancodeltiempoaltea@gmail.com,silviagranda@hotmail.com,,,2013,,,,,,,,,,,,,2013-10-15 17:45:06
Banco de Tiempo de Antequera,,Grupo/colectivo,Banco de tiempo - Municipal,"C/ Mesones, 5 Bjos.",,"C/ Mesones, 5 Bjos. ",29200,"C/ Mesones, 5 Bjos. 29200",Antequera,Málaga,,Andalucía,,,,,37.020001,-4.5593676,952 739 695,,,bancodetiempodeantequera@gmail.com,,,,,,,,,,,,,,,,,2013-06-07 19:45:00
Banco de Tiempo de Añover de Tajo,,Grupo/colectivo,Banco de tiempo - Municipal,"C/ Coronel Monasterio, 1 - Centro Social Polivalente",,"C/ Coronel Monasterio, 1 - Centro Social Polivalente ",45250,"C/ Coronel Monasterio, 1 - Centro Social Polivalente 45250",Añover de Tajo,Toledo,,Castilla-La Mancha,,,,,39.9894861,-3.7663657,925 555 288,,,pilar.apinaniz@anoverdetajo.es,,,,,,,,,,,,,,,,,2013-06-07 19:47:46
Banco de Tiempo de Argamasilla de Alba,,Grupo/colectivo,Banco de tiempo - Municipal,"C/ del Alcázar, 67",,"C/ del Alcázar, 67 ",13710,"C/ del Alcázar, 67 13710",Argamasilla de Alba,Ciudad Real,,Castilla-La Mancha,,,,,39.1329574,-3.0929671,693 416 299,,,,,,,,,,,,,,,,,,,,2013-06-07 19:49:05
Banco de Tiempo de Armilla,,Grupo/colectivo,Banco de tiempo - Municipal,"C/ Fernando Martín, s/n",,"C/ Fernando Martín, s/n ",18100,"C/ Fernando Martín, s/n 18100",Armilla,Granada,,Andalucía,,,,,37.1439159,-3.6254529,958 578 905-08,,,bancodeltiempo@ayuntamientodearmilla.com,,,,,,,,,,,,,,,,,2013-06-07 19:49:12
Banco de Tiempo de Arriate,,Grupo/colectivo,Banco de tiempo - Municipal,"C/ de los cordones, 4",,"C/ de los cordones, 4 ",29350,"C/ de los cordones, 4 29350",Arriate,Málaga,,Andalucía,,,,,36.798816,-5.1420484,952 165 100 / 670 358 402,,,truekate@arriate.es,,,,,,,,,,,,,,,,,2013-06-07 19:49:15
Banco de Tiempo de Arucas,,Grupo/colectivo,Banco de tiempo - Municipal,,, ,35004, 35004,Las Palmas De Gran Canaria,Las Palmas,,Canarias,,,,,28.1157451,-15.4229159,601 948 / 928 622 448,,,mujer@arucas.org,,,,,,,,,,,,,,,,,2013-06-07 19:49:19
Banco de Tiempo de Arzua,,Grupo/colectivo,Banco de tiempo - Municipal,,, ,15810, 15810,Arzua,A Coruña,,Galicia,,,,,42.9296884,-8.1607836,981 500 000,,,,,,,,,,,,,,,,,,,,2013-06-07 19:49:23
Banco de Tiempo de Ávila,,Grupo/colectivo,Banco de tiempo - Municipal,"C/ Cardenal Pla  Deniel, 6",,"C/ Cardenal Pla  Deniel, 6 ",05001,"C/ Cardenal Pla Deniel, 6 05001",Ávila,Ávila,,Castilla y León,,,,,40.6547782,-4.6995589, 920 354 000 ext.870,,,bancotiempoavila@gmail.com,,,http://avilajoven.blogspot.com.es/,,,,,,,,,,,,,,2014-04-30 08:06:10
Banco de Tiempo de Avilés,,Grupo/colectivo,Banco de tiempo - Municipal,"C/ Sabino Álvarez Gendín, 26 bjo.",,"C/ Sabino Álvarez Gendín, 26 bjo. ",33402,"C/ Sabino Álvarez Gendín, 26 bjo. 33402",Avilés,Asturias,,Principado de Asturias,,,,,43.5484209,-5.9280628,985 129 098,,,bancodeltiempo@ayto-aviles.es,,,,,,,,,,,,,,,,,2013-06-07 19:49:30
Banco de Tiempo de Badía del Vallés,,Grupo/colectivo,Banco de tiempo - Municipal,"Av. Burgos, 18",,"Av. Burgos, 18 ",08214,"Av. Burgos, 18 08214",Badía Del Vallés,Barcelona,,Cataluña,,,,,41.5082576,2.1162632,,,,bancotiempobadia@gmail.com,,,,,,,,,,,,,,,,,2013-06-07 19:49:33
Banco de Tiempo de Bailén Miraflores,,Grupo/colectivo,Banco de tiempo - Municipal,"C/ Sevilla, 8",,"C/ Sevilla, 8 ",29012,"C/ Sevilla, 8 29012",Málaga,Málaga,,Andalucía,,,,,36.7240955,-4.429548,952 300 500,,,,,,,,,,,,,,,,,,,,2013-06-07 19:49:37
Banco de Tiempo de Balmaseda,,Grupo/colectivo,Banco de tiempo - Municipal,,, ,, ,Balmaseda,Vizcaya,,País Vasco,,,,,43.19329,-3.195521,946 800 000,,,leticia@balmaseda.net,,,,,,,,,,,,,,,,,2013-06-07 19:49:40
Banco de Tiempo de Barakaldo,,Grupo/colectivo,Banco de tiempo - Municipal,"c/ Gernikako Arbola, 41",Centro Cívico Clara Campoamor,"Centro Cívico Clara Campoamor - c/ Gernikako Arbola, 41",48902,"Centro Cívico Clara Campoamor - c/ Gernikako Arbola, 41 48902",Barakaldo,Vizcaya,,País Vasco,,,,,43.2939031,-2.9950747,94.478.94.50,,,bdtbarakaldo@barakaldo.org,,,,2013,,"El Banco de Tiempo de Barakaldo está abierto a todas las personas vecinas del municipio. 
Las personas que tengan interés en participar en el Banco de Tiempo, se han de acercar a la secretaría del banco sita en el Centro Cívico Clara Campoamor dónde podrán realizar la inscripción. El horario de atención: lunes de 17h00 a 20h00 y viernes de 10h00 a 13h00.",,,,,,,,,,,2014-05-19 22:49:57
Banco de Tiempo de Benalmádena,,Grupo/colectivo,Banco de tiempo - Municipal,C/ Amapola,Espacio Joven ,Espacio Joven  - C/ Amapola,,Espacio Joven - C/ Amapola ,Benalmádena,Málaga,,Andalucía,,,,,36.5955521,-4.5740003,,,,,,,,,,,,,,,,,,,,,2013-06-09 23:47:08
Banco de Tiempo de Bilbao - Barrios Altos,,Grupo/colectivo,Banco de tiempo - Municipal,"Plaza del Corazón de María, 5",,"Plaza del Corazón de María, 5 ",48003,"Plaza del Corazón de María, 5 48003",Bilbao,Vizcaya,,País Vasco,,,,,43.2564038,-2.9274615,944 168 571,,,,,,,,,,,,,,,,,,,,2013-06-07 19:50:46
Banco de Tiempo de Bolullos del Condado,,Grupo/colectivo,Banco de tiempo - Municipal,"Pl. Sagrado Corazón de Jesús, 1",,"Pl. Sagrado Corazón de Jesús, 1 ",21710,"Pl. Sagrado Corazón de Jesús, 1 21710",Bolullos Par del Condado,Huelva,,Andalucía,,,,,37.3359073,-6.5353342,959 412 094,,,,,,,,,,,,,,,,,,,,2013-06-07 19:50:56
Banco de Tiempo de Bon Pastor,,Grupo/colectivo,Banco de tiempo - Municipal,"Plça. Robert Gerhard, 3 - Centre Cívic del Bon Pastor",,"Plça. Robert Gerhard, 3 - Centre Cívic del Bon Pastor ",08030,"Plça. Robert Gerhard, 3 - Centre Cívic del Bon Pastor 08030",Barcelona,Barcelona,,Cataluña,,,,,41.4347168,2.2050022,933 147 947,,,bancdeltempsbonpastor@yahoo.es,,,,,,,,,,,,,,,,,2013-06-07 19:50:59
Banco de Tiempo de Borriana -  Les Alqueries,,Grupo/colectivo,Banco de tiempo - Municipal,,, ,, ,Burriana,Castellón,,Comunidad Valenciana,,,,,39.8895586,-0.0842113,35 324 110,,,bdt.burriana.alquerias@gmail.com,,,,,,,,,,,,,,,,,2013-06-07 19:51:07
Banco de Tiempo de Burgos,,Grupo/colectivo,Banco de tiempo - Municipal,,, ,, ,,Burgos,,Castilla y León,,,,,42.3439925,-3.696906,646 211 010,,,mariapilar21@hotmail.com,,,,,,,,,,,,,,,,,2013-06-07 19:51:21
Banco de Tiempo de Butroi Bizirik en Transición - en Denbora Bankua,,Asociación,Banco de tiempo - Comunitario,"Ibaigane Kalea, 10",,"Ibaigane Kalea, 10 ",48100,"Ibaigane Kalea, 10 48100",Mungia,Vizcaya,Uribe-Butroi,País Vasco,,,,,43.3553721,-2.8495817,94-6020636,,,bbteimpo@gmail.com,butroientransicion@gmail.com,http://www.butroientransicion.org/,,2012,,"Butroi Bizirik en Transición (BBT) es un movimiento de Transición*  en Uribe Butroi, abierto, comunitario y local, en continuo cambio y aprendizaje, que trabaja para la transformación personal y social orientada hacia el bien común y la soberanía tanto alimentaria, energética, tecnológica, como económica, en donde todas estas se desarrollen en armonía con la naturaleza. 
Deseamos recuperar la economía con formas de vida local, ética, justa, solidaria y ecológica. Queremos que lo que es deseable social y medioambientalmente sea viable económicamente.
*Transición: Es un movimiento de carácter mundial https://www.transitionnetwork.org/ 
",,,,,,,,,,,2015-02-24 11:58:12
Banco de Tiempo de Cabra ,Banco del Tiempo de Cabra: ofrece lo que puedas y recibe lo que necesitas.,Centro social,Banco de tiempo - Municipal,C/ Priego nº 28 ,,C/ Priego nº 28  ,14940,C/ Priego nº 28 14940,Cabra,Córdoba,Pueblo,Andalucía,,,,Municipio,37.4701782,-4.4423885,957524710,902002785,957523547,bancodeltiempocabra@gmail.com,lydia.aguilera@grupoineprodes.com,,http://bancodeltiempocabra.blogspot.com.es/,2013,,"El Banco del Tiempo de Cabra es un servicio municipal gratuito y sin ánimo de lucro. Dependiente del Patronato Municipal de Bienestar Social del Ilmo. Ayuntamiento de Cabra y gestionado en colaboración con la Fundación Grupo INEPRODES.
Todas las personas tienen valor y mucho que ofrecer, por ello todos/as podemos participar, lo importante es poder ofrecer algo de tiempo libre.
 ",,,,,,,,,,,2014-04-08 09:02:17
Banco de Tiempo de Cáceres,,Grupo/colectivo,Banco de tiempo - Municipal,"Pl. Mayor, 30, 31 dcha.",,"Pl. Mayor, 30, 31 dcha. ",10003,"Pl. Mayor, 30, 31 dcha. 10003",Cáceres,Cáceres,,Extremadura,,,,,39.471329,-6.370961,927 245 772 / 608 445 910,,,bancodeltiempo@fic07.eu,,,,,,,,,,,,,,,,,2013-06-07 19:51:33
Banco de Tiempo de Cádiz,,Grupo/colectivo,Banco de tiempo - Municipal,,, ,, ,Cádiz,Cádiz,,Andalucía,,,,,36.5270612,-6.2885962,636 235 885,,,vendanki@hotmail.com,,,,,,,,,,,,,,,,,2013-06-07 19:51:38
Banco de Tiempo de Calahorra,,Grupo/colectivo,Banco de tiempo - Municipal,"C/ de Miguel de Cervantes, 1",,"C/ de Miguel de Cervantes, 1 ",26500,"C/ de Miguel de Cervantes, 1 26500",Calahorra,La Rioja,,La Rioja,,,,,42.3021975,-1.9645412,941 147 746 / 667 463 791,,,bancodeltiempo@consejojuventudcalahorra.com,,,,,,,,,,,,,,,,,2013-06-07 19:52:21
Banco de Tiempo de Cambrils,,Grupo/colectivo,Banco de tiempo - Municipal,"C/ Sant Pere, 33",,"C/ Sant Pere, 33 ",43850,"C/ Sant Pere, 33 43850",Cambrils,Tarragona,,Cataluña,,,,,41.0684259,1.0616035,977 368 217,,,bancdeltemps@cambrilsciutat.org,,,,,,,,,,,,,,,,,2013-06-07 19:52:34
Banco de Tiempo de Can Baró,,Grupo/colectivo,Banco de tiempo - Municipal,"C/ Josep Serrano, 59-71",Casal Pirineu,"Casal Pirineu - C/ Josep Serrano, 59-71",08024,"Casal Pirineu - C/ Josep Serrano, 59-71 08024",Barcelona,Barcelona,,Cataluña,,,,,41.4171137,2.1620688,932 199 224,,,,,,,,,,,,,,,,,,,,2013-06-09 23:10:09
Banco de Tiempo de Carabanchel,,Grupo/colectivo,Banco de tiempo - Municipal,,, ,, ,Madrid,Madrid,,Comunidad de Madrid,,,,,40.4167754,-3.7037902,,,,bancotiempocarabanchel@gmail.com,,,,,,,,,,,,,,,,,2013-06-07 19:52:47
Banco de Tiempo de Carabanchel y Usera - CAF3,,Grupo/colectivo,Banco de tiempo - Municipal,"Avenida Rafaela Ybarra, 41",Junta Municipal Distrito Usera,"Junta Municipal Distrito Usera - Avenida Rafaela Ybarra, 41",28026,"Junta Municipal Distrito Usera - Avenida Rafaela Ybarra, 41 28026",Madrid,Madrid,,Comunidad de Madrid,,,,,40.3824183,-3.7107441,914 632 342,,914 638 644,caf-3@madrid.es,,,,,,,,,,,,,,,,,2015-06-16 11:31:02
"Banco de Tiempo de Centro, Arganzuela, Chamberí y Moncloa-Aravaca - CAF1",,Grupo/colectivo,Banco de tiempo - Municipal,"C/ Rafael Calvo, 8",,"C/ Rafael Calvo, 8 ",28010,"C/ Rafael Calvo, 8 28010",Madrid,Madrid,,Comunidad de Madrid,,,,,40.4336025,-3.6966301,915 061 860,914 675 873,,caf-1@madrid.es,,,,,,,,,,,,,,,,,2014-03-31 09:27:41
Banco de Tiempo de Cerdanyola del Vallés,,Grupo/colectivo,Banco de tiempo - Municipal,"C/ de la Indústria, s/n",L'Ateneu ,"L'Ateneu  - C/ de la Indústria, s/n",08290,"L'Ateneu - C/ de la Indústria, s/n 08290",Cerdanyola Del Valles,Barcelona,,Cataluña,,,,,41.487779,2.1374819,935 914 133,,,bancdeltemps@cerdanyola.cat,,,,,,,,,,,,,,,,,2013-06-09 23:11:48
Banco de Tiempo de Churriana (Asociacion de vecinos ARCUSVES),,Asociación,Banco de tiempo - Municipal,Gonzalo de Berceo s/n,,Gonzalo de Berceo s/n ,29140,Gonzalo de Berceo s/n 29140,Málaga,Málaga,Churriana Distrito,Andalucía,,Churriana,,Distrito,36.6689104,-4.5031482,692315846,952435951,,bdtchurriana@gmail.com,arcusves@gmail.com,https://es-es.facebook.com/.../BANCO-del-TIEMPO-CHURRIANA/,http://arcusves.blogspot.com/,2011,,"Banco de Tiempo , gestionadado por la Asociación de Vecinos ARCUSVES , en la linea de Banco de Tiempo: Es el primer banco que funciona sin dinero, únicamente se puede depositar tiempo y su moneda es la hora. En el banco del tiempo se intercambian servicios entre personas y para ello se usa la moneda-tiempo. y una apuesta por el Trueque , que realizamos los 1º viernes de més .",,,,,,,,,,,2015-06-16 11:34:31
"Banco de Tiempo de Ciudad Lineal, Hortaleza, San Blas y Barajas - CAF2",,Grupo/colectivo,Banco de tiempo - Municipal,"C/ Francisco Morejón, 4",,"C/ Francisco Morejón, 4 ",28043,"C/ Francisco Morejón, 4 28043",Madrid,Madrid,,Comunidad de Madrid,,,,,40.4593173,-3.6233705,913 677 655,,,caf-2@madrid.es,,,,,,,,,,,,,,,,,2014-02-01 09:32:12
Banco de Tiempo de Coin,,Grupo/colectivo,Banco de tiempo - Municipal,C/ Urbano Pineda - Area Serv. Sociales,,C/ Urbano Pineda - Area Serv. Sociales ,29100,C/ Urbano Pineda - Area Serv. Sociales 29100,Coin,Málaga,,Andalucía,,,,,36.659484,-4.753782,952 455 908,,,,,,,,,,,,,,,,,,,,2013-06-07 19:53:51
Banco de Tiempo de Collado Villalba,,Grupo/colectivo,Banco de tiempo - Municipal,"Pl. Príncipe de España, s/n","Aula 4, Centro Polifuncional","Aula 4, Centro Polifuncional - Pl. Príncipe de España, s/n",28400,"Aula 4, Centro Polifuncional - Pl. Príncipe de España, s/n 28400",Collado Villalba,Madrid,Estación,Comunidad de Madrid,,,,,40.6286627,-4.0087395,689321415,918514303,,bdt.villalba@gmail.com,,http://bdtvillalba.wix.com/bdtcolladovillalba,http://bancodeltiempovillalba.blogspot.com.es/,2011,,"EL BANCO DEL TIEMPO DE COLLADO VILLALBA FUE CREADO EN ABRIL DEL 2011 POR INCIATIVA DEL AYUNTAMIENTO DE COLLADO VILLALBA Y LA UNIVERSIDAD AUTONOMA DE MADRID. A PARTIR DE JUNIO DE 2012 LO GESTIONA LA ASOCIACION COMPARTIEMPO INDEPENDIENTE Y FORMADA POR USUARI@S DE ESTE BANCO DEL TIEMPO.

EL HORARIO DE ATENCIÓN A LAS PERSONAS INTERESADAS ES LOS VIERNES DE 18:00 A 19:50.",,,,,,,,,,,2014-03-05 10:52:14
Banco de Tiempo de Corcubión,,Grupo/colectivo,Banco de tiempo - Municipal,,, ,, ,Corcubión,A Coruña,,Galicia,,,,,42.9425685,-9.1922555,981 745 400,,,,,,,,,,,,,,,,,,,,2013-06-07 19:54:04
Banco de Tiempo de Córdoba,,Grupo/colectivo,Banco de tiempo - Municipal,"Av. Del Gran Capitán, 28",,"Av. Del Gran Capitán, 28 ",14001,"Av. Del Gran Capitán, 28 14001",Córdoba,Córdoba,,Andalucía,,,,,37.8885024,-4.7824754,,,,,,,,,,,,,,,,,,,,,2013-06-07 19:54:07
Banco de Tiempo de Cornellà,,Grupo/colectivo,Banco de tiempo - Comunitario,,, ,, ,,Barcelona,,Cataluña,,,,,41.3573827,2.0707159,,,,btcornella@gmail.com,,,,,,,,,,,,,,,,,2014-05-20 21:44:32
Banco de Tiempo de Cruz Roja,,Grupo/colectivo,Banco de tiempo - Municipal,"C/ Pozas, 14",,"C/ Pozas, 14 ",28004,"C/ Pozas, 14 28004",Madrid,Madrid,,Comunidad de Madrid,,,,,40.4252051,-3.7065765,915 325 555,,,pbtiempo@cruzroja.es,,,,,,,,,,,,,,,,,2013-06-07 19:54:14
Banco de Tiempo de Cruz Roja - Móstoles,,Grupo/colectivo,Banco de tiempo - Municipal,"Av. Carlos V, 5",,"Av. Carlos V, 5 ",20936,"Av. Carlos V, 5 20936",Móstoles,Madrid,,Comunidad de Madrid,,,,,40.3222669,-3.8497927,913 308 835 (ext. 6),,,bancodeltiempo.mos@cruzroja.es,,,,,,,,,,,,,,,,,2013-06-07 19:54:17
Banco de Tiempo de Donostia,,Grupo/colectivo,Banco de tiempo - Municipal,"Edif. antiguas caballerizas, 1er piso Sala Sua",,"Edif. antiguas caballerizas, 1er piso Sala Sua ",20009,"Edif. antiguas caballerizas, 1er piso Sala Sua 20009",San Sebastián,Gipuzkoa,,País Vasco,,,,,43.2953855,-1.985706,609 466 948,,,bancodetiempodonostia@hotmail.com,,,,,,,,,,,,,,,,,2013-06-07 19:54:27
Banco de Tiempo de El Escorial,,Grupo/colectivo,Banco de tiempo - Municipal,"C/ Sagrado Corazón, 5",,"C/ Sagrado Corazón, 5 ",28280,"C/ Sagrado Corazón, 5 28280",El Escorial,Madrid,,Comunidad de Madrid,,,,,40.38,-3.86,918 901 445,,,mujer@aytoescorial.org,,,,,,,,,,,,,,,,,2013-06-07 19:55:00
Banco de Tiempo de El Molar,,Grupo/colectivo,Banco de tiempo - Municipal,"C/ Remolino, 4",,"C/ Remolino, 4 ",28710,"C/ Remolino, 4 28710",El Molar,Madrid,,Comunidad de Madrid,,,,,40.7325378,-3.5818426,,,,bdtelmolar@gmail.com,,,,,,,,,,,,,,,,,2013-06-07 19:55:06
Banco de Tiempo de Elche,,Grupo/colectivo,Banco de tiempo - Municipal,C/Animes nº1,,C/Animes nº1 ,03202,C/Animes nº1 03202,Elche,Alicante,Ciudad,Comunidad Valenciana,,,,Municipio,38.26629,-0.6985787,966 65 92 21,,,bdtelche@ayto-elche.es,bdtelche@ayto-elche.es,http://www.elche.es/micrositios/accion-social-/info/1990/banco-del-tiempo/,,2013,,"El Servicio BANCO DEL TIEMPO (BdT) es un servicio gratuito que gestiona el Ayuntamiento de Elche y que promueve, dentro del municipio, el intercambio de tiempo de servicios y/o actividades entre ciudadanos, tanto a nivel individual como grupal, que se hayan inscrito como socios.",,,,,,,,,,,2014-11-12 21:14:49
Banco de Tiempo de Elche,,Grupo/colectivo,Banco de tiempo - Municipal,"C/ de Arturo Salvetti Pardo, 9",,"C/ de Arturo Salvetti Pardo, 9 ",03206,"C/ de Arturo Salvetti Pardo, 9 03206",Elche,Alicante,,Comunidad Valenciana,,,,,38.2745861,-0.7061606,966 243 128 / 129,,,rincondelasculturas@gmail.com,,,,,,,,,,,,,,,,,2013-06-07 19:55:09
Banco de Tiempo de Estella-Lizarra,,Grupo/colectivo,Banco de tiempo - Municipal,"C/ de la Navarrería, 62, 1º, desp. 2 sala reuniones",,"C/ de la Navarrería, 62, 1º, desp. 2 sala reuniones ",31200,"C/ de la Navarrería, 62, 1º, desp. 2 sala reuniones 31200",Estella,Navarra,,Comunidad Foral de Navarra,,,,,42.6720856,-2.0324524,948 556 329 / 948 556 331,,,bdtestella.lizarra@gmail.com,,,,,,,,,,,,,,,,,2013-06-07 19:55:13
Banco de Tiempo de Ferrol,,Grupo/colectivo,Banco de tiempo - Municipal,"Rúa Sánchez Barcáiztegui, 35-47",,"Rúa Sánchez Barcáiztegui, 35-47 ",,"Rúa Sánchez Barcáiztegui, 35-47 ",El Ferrol,A Coruña,,Galicia,,,,,43.4825392,-8.2360185,981 944 230,,,,,,,,,,,,,,,,,,,,2013-06-07 19:55:17
Banco de Tiempo de Ferrolterra,,Grupo/colectivo,Banco de tiempo - Comunitario,Avda. Castelao S/N,Traseira do Mercado de Caranza,Traseira do Mercado de Caranza - Avda. Castelao S/N,15406,Traseira do Mercado de Caranza - Avda. Castelao S/N 15406,Ferrol ,A Coruña,Galicia,Galicia,,,,,43.4829432,-8.2045467,659308775,,,bdt@deferrolterra.com,bancodetempo@deferrolterra.com,http://bdt.deferrolterra.com/,http://bancodetempo.deferrolterra.com/,2012,,"El banco de tiempo de Ferrolterra es una iniciativa para recuperar el BdT municipal que fué abandonado por el ayuntamiento de Ferrol. Pretendía ser un ente de gestión descentraliza, con la cooperación de todo el tejido asociativo, pero de momento, es solo un recurso diferente que mantenemos vivo 40 socios y socias con unas 70 ofertas. Eso si, esta ahí y !funciona!",,,,,,,,,,,2013-11-12 12:00:30
Banco de Tiempo de Fuente el Fresno,,Centro social,Banco de tiempo - Municipal,"Real, 57",,"Real, 57 ",13680,"Real, 57 13680",Fuente el Fresno,Ciudad Real,Ciudad Real,Castilla-La Mancha,,,,,39.2283154,-3.7767369,926804559,666080805,,bancodeltiempoffresno@gmail.com,,https://www.facebook.com/bancodeltiempo.defuenteelfresno?fref=ts,,2013,,"CENTRO SOCIAL DE FUENTE EL FRESNO: todos los días de 11:00 a 13:00 donde organizaremos y coordinaremos vuestras ofertas y demandas.
¡Ven a por tus créditos de tiempo!
Cuanto mayor crédito de tiempo circule y cuanta más gente comparta su tiempo y sus talentos entre ellos más rica se convertirá la comunidad.",,,,,,,,,,,2014-03-05 10:50:42
Banco de Tiempo de Galapagar,,Grupo/colectivo,Banco de tiempo - Municipal,"Pl. Constitución, 3",,"Pl. Constitución, 3 ",28260,"Pl. Constitución, 3 28260",Galapagar,Madrid,,Comunidad de Madrid,,,,,40.5773142,-4.0039748,918 587 825,,,coordinadora.sociales@ayuntamientodegalapagar.com,,,,,,,,,,,,,,,,,2013-06-07 19:55:25
Banco de Tiempo de Gandia,,Grupo/colectivo,Banco de tiempo - Municipal,"Av. Benipa, 35",,"Av. Benipa, 35 ",46701,"Av. Benipa, 35 46701",Gandia,Valencia,,Comunidad Valenciana,,,,,38.9699346,-0.1868881,962 965 672 / 647 310 082,,,,,,,,,,,,,,,,,,,,2013-06-07 19:55:28
Banco de Tiempo de Gualchos,,Grupo/colectivo,Banco de tiempo - Municipal,,, ,, ,Gualchos,Granada,,Andalucía,,,,,36.7446261,-3.3892894,,,,,,,,,,,,,,,,,,,,,2013-06-07 19:55:35
Banco de Tiempo de Guitiriz,,Grupo/colectivo,Banco de tiempo - Municipal,,, ,, ,Guitiriz,Lugo,,Galicia,,,,,43.1816306,-7.8922143,982 370 109,,,,,,,,,,,,,,,,,,,,2013-06-07 19:55:39
Banco de Tiempo de Herencia,,Grupo/colectivo,Banco de tiempo - Municipal,"C/ Lope de Vega, 31 - Casa de Herencia Herencia",,"C/ Lope de Vega, 31 - Casa de Herencia Herencia ",13640,"C/ Lope de Vega, 31 - Casa de Herencia Herencia 13640",Ciudad Real,Ciudad Real,,Castilla-La Mancha,,,,,38.9848295,-3.9273778,926 570 024 / 926 571 700,,,bancodeltiempo@herencia.es,,,,,,,,,,,,,,,,,2013-06-07 19:55:56
Banco de Tiempo de Hondarribia - Trukean,,Grupo/colectivo,Banco de tiempo - Municipal,"C/ Nagusia Kalea, 7",,"C/ Nagusia Kalea, 7",20280,"C/ Nagusia Kalea, 7 20280",Hondarribia,Gipuzkoa,,País Vasco,,,,,43.3626075,-1.7912882,943 114 000,,,trukean@gmail.com,,,,,,,,,,,,,,,,,2013-06-07 19:56:00
Banco de Tiempo de Huelva - As. Vecinos Hispanidad,,Grupo/colectivo,Banco de tiempo - Municipal,"C/ Gabriela Mistral, s/n",,"C/ Gabriela Mistral, s/n ",21005,"C/ Gabriela Mistral, s/n 21005",Huelva,Huelva,,Andalucía,,,,,37.2696681,-6.9385154,959 153 601,,,hispanidad@bancodeltiempohuelva.org,,,,,,,,,,,,,,,,,2013-06-07 19:56:05
Banco de Tiempo de Huelva - As. Vecinos Pol. S. Sebastián,,Grupo/colectivo,Banco de tiempo - Municipal,C/ Carcelera s/n,,C/ Carcelera s/n ,21006,C/ Carcelera s/n 21006,Huelva,Huelva,,Andalucía,,,,,37.2611653,-6.935674,669 631 382,,,psansebastian@bancodeltiempohuelv.org,,,,,,,,,,,,,,,,,2013-06-07 19:56:08
Banco de Tiempo de Huelva Capital,,Asociación,Banco de tiempo - Municipal,"Universidad de Huelva, Plaza Juan Ramón Jiménez, Edif. Humanidades, Despacho 08 (planta baja)",Campus del Carmen,"Universidad de Huelva, Plaza Juan Ramón Jiménez, Edif. Humanidades, Despacho 08 (planta baja) Campus del Carmen",21081,"Universidad de Huelva, Plaza Juan Ramón Jiménez, Edif. Humanidades, Despacho 08 (planta baja) Campus del Carmen 21081",Huelva,Huelva,Distrito Los Rosales. Universidad de Huelva.,Andalucía,,Los Rosales. Universidad de Huelva.,,Distrito,37.261421,-6.9447224,959219187,,,bthuelva@gmail.com,,http://www.bthuelva.es/,,2013,,El primer banco de tiempo en España que ofrece servicios e investigación. ,,,,,,,,,,,2014-10-07 16:57:49
Banco de Tiempo de Huesca,,Grupo/colectivo,Banco de tiempo - Municipal,"Av. De Martínez de Velasco, 6 - Centro Cultural",,"Av. De Martínez de Velasco, 6 - Centro Cultural ",22005,"Av. De Martínez de Velasco, 6 - Centro Cultural 22005",Huesca,Huesca,,Aragón,,,,,42.1294151,-0.3960275,,,,bancodetiempohuesca@gmail.com,,,,,,,,,,,,,,,,,2013-06-07 19:57:16
Banco de Tiempo de Ibiza,,Grupo/colectivo,Banco de tiempo - Municipal,"Fra Vicent Nicolau, 9 bjos.",,"Fra Vicent Nicolau, 9 bjos. ",07800,"Fra Vicent Nicolau, 9 bjos. 07800",Ibiza,Baleares,,Islas Baleares,,,,,38.9113446,1.4288257,971 318 821,,,casal.dones@eivissa.es,,,,,,,,,,,,,,,,,2013-06-10 00:10:16
Banco de Tiempo de Ida y Vuelta,,Grupo/colectivo,Banco de tiempo - Municipal,(para todo Madrid),,(para todo Madrid) ,,(para todo Madrid) ,Madrid,Madrid,,Comunidad de Madrid,,,,Comunidad autónoma,40.4289001,-3.6919126,619 381 707 / 634 535 555,,,info@musicadeidayvuelta.org,,,,,,,,,,,,,,,,,2013-06-07 19:57:23
Banco de Tiempo de Ingenio,,Grupo/colectivo,Banco de tiempo - Municipal,,, ,, ,Ingenio,Las Palmas,,Canarias,,,,,27.9182821,-15.4331746,,,,,,,,,,,,,,,,,,,,,2013-06-07 19:57:28
Banco de Tiempo de Jun,,Grupo/colectivo,Banco de tiempo - Municipal,"Pl. Coro San Piu, s/n - Centro Guadalinfo",,"Pl. Coro San Piu, s/n - Centro Guadalinfo ",18213,"Pl. Coro San Piu, s/n - Centro Guadalinfo 18213",,Granada,,Andalucía,,,,,37.1773363,-3.5985571,645 011  319,,,bancodeltiempo@jun.es,,,,,,,,,,,,,,,,,2013-06-07 19:57:34
Banco de Tiempo de Karrantza,,Grupo/colectivo,Banco de tiempo - Municipal,,, ,48891, 48891,Karrantza,Vizcaya,,País Vasco,,,,,43.2223226,-3.3590446,946466943,661937991,,bdtkarrantza@hotmail.com,kulturetxea@karrantza.org,https://www.facebook.com/bancodeltiempo.karrantza,http://bdtkarrantza.blogspot.com.es/2012/02/banco-del-tiempo-karrantza.html,2011,,"No tenemos ninguna oficina, pero si nos ayudan en la casa de cultura y podríamos recibir correo allí: Karrantzako kulturetxea, Bº Concha nº 46, 48891 Karrantza.
",,,,,,,,,,,2013-06-17 09:32:21
Banco de Tiempo de La Alhóndiga,Ven a compartir tu tiempo. Otro mundo es posible!,Otros,Banco de tiempo - Comunitario,Calle Hernán Cortés 13,,Calle Hernán Cortés 13 ,28904,Calle Hernán Cortés 13 28904,Getafe,Madrid,,Comunidad de Madrid,,,,,40.3089592,-3.7375294,654822802,606957322,,bancodetiempo.alhondiga@gmail.com,redapoyosolidario.alhondiga@gmail.com,,,2013,,"El Banco de Tiempo de La Alhóndiga, en Getafe, es un espacio de intercambio en el que no existe el dinero y cabe todo lo que se necesite y todo lo que se puede ofrecer. No existe ánimo de lucro ya que la unidad de cambio es el tiempo. 
El objetivo es proporcionar una infraestructura básica para el intercambio de conocimiento y tiempo de actividad entre las y los vecinos.  Se trata de crear una red comunitaria en el barrio que, bajo los principios de la ayuda mutua y solidaridad, resuelva los problemas concretos de la vida cotidiana. Esta iniciativa es parte de la Red de Apoyo Solidario del barrio.",,,,,,,,,,,2013-10-15 17:51:13
Banco de Tiempo de la Asamblea de Retiro (Entrehoras),,Grupo/colectivo,Banco de tiempo - Comunitario,,, ,, ,,Madrid,Retiro,Comunidad de Madrid,,Retiro,,Distrito,40.406373,-3.682017,,,,,,https://www.facebook.com/EntrehorasBancoDeTiempoDeLaAsambleaRetiro,http://entrehoras.dyndns.org/do/member/home?fromMenu=true,2011,,,,,,,,,,,,,2013-07-20 19:20:35
Banco de Tiempo de la Asociación Círculo de Agua de Barbastro,,Asociación,Banco de tiempo - Comunitario,C/ Teruel 14,Bajos ,C/ Teruel 14 Bajos ,22300,C/ Teruel 14 Bajos 22300,Barbastro,Huesca,Barrio de San Fermín,Aragón,San Fermín,,,Barrio,42.0360435,0.1284404,635986834,,,circulodeagua@gmail.com,,http://www.bancodetiempocirculodeagua.es/,,2010,,,,,,,,,,,,,2013-06-12 22:01:26
Banco de Tiempo de La Dreta de l'Eixample + Fort Pienc,,Grupo/colectivo,Banco de tiempo - Municipal,"C/ Ali Bei, 94-96",Espai d'Entitats del barri de Fort Pienc ,"Espai d'Entitats del barri de Fort Pienc  - C/ Ali Bei, 94-96",08013,"Espai d'Entitats del barri de Fort Pienc - C/ Ali Bei, 94-96 08013",Barcelona,Barcelona,,Cataluña,,,,,41.3956919,2.1838731,932 311 146,,,bdtdretafortpienc@gmail.com,,,,,,,,,,,,,,,,,2013-06-09 23:14:47
Banco de Tiempo de La Garriga,,Grupo/colectivo,Banco de tiempo - Municipal,,, ,, ,,Barcelona,,Cataluña,,,,,41.6933493,2.2778128,,,,,,,,,,,,,,,,,,,,,2013-06-09 23:15:18
Banco de Tiempo de La Losa,,Grupo/colectivo,Banco de tiempo - Municipal,,, ,, ,Segovia,Segovia,,Castilla y León,,,,,40.9435626,-4.1130022,921 480 101-291/678 089 950,,,,,,,,,,,,,,,,,,,,2013-06-07 19:58:00
Banco de Tiempo de la Soledad y el Polígono,,Grupo/colectivo,Banco de tiempo - Municipal,,, ,07006, 07006,Palma De Mallorca,Baleares,,Islas Baleares,,,,,39.5617364,2.6760251,971 466 201 / 971 463 558,,,f.patronat@telefonica.net,,,,,,,,,,,,,,,,,2013-06-10 00:05:46
Banco de Tiempo de La Verneda,,Grupo/colectivo,Banco de tiempo - Municipal,"C/ Santander, 6",Centre del Barri de la Verneda ,"Centre del Barri de la Verneda  - C/ Santander, 6",08020,"Centre del Barri de la Verneda - C/ Santander, 6 08020",Barcelona,Barcelona,,Cataluña,,,,,41.4227632,2.1967514,933 057 384,,,cbverneda@gmail.com,,,,,,,,,,,,,,,,,2013-06-09 23:15:43
Banco de Tiempo de Lanzarote,Banco de Tiempo Lanzarote - Red de intercambio ,Red,Banco de tiempo - Comunitario,"Calle Figueroa 20, Arrecife de Lanzarote ",,"Calle Figueroa 20, Arrecife de Lanzarote  ",35500,"Calle Figueroa 20, Arrecife de Lanzarote 35500",Arrecife,Las Palmas,Canarias,Canarias,,,,,28.9601802,-13.5512413,609 237 836,,,bancodetiempolanzarote@gmail.com,,http://www.bancodetiempolanzarote.org/,,2013,,,,,,,,,,,,,2013-11-12 12:08:41
Banco de Tiempo de Las Rozas,,Otros,Banco de tiempo - Municipal,"C/ Comunidad de la Rioja, 2",Centro Municipal El Abajón,"Centro Municipal El Abajón - C/ Comunidad de la Rioja, 2",28230,"Centro Municipal El Abajón - C/ Comunidad de la Rioja, 2 28230",Las Rozas de Madrid,Madrid,Madrid Noroeste,Comunidad de Madrid,,,Madrid Noroeste,Comarca,40.4912137,-3.8815673,,,,bancodeltiempo@lasrozas.es,,,,2012,,,,,,,,,,,,,2014-02-01 09:38:29
Banco de Tiempo de Latina - CAF7,,Grupo/colectivo,Banco de tiempo - Municipal,"C/ Fuerte de Navidad, 15 ",,"C/ Fuerte de Navidad, 15  ",28044,"C/ Fuerte de Navidad, 15 28044",Madrid,Madrid,,Comunidad de Madrid,,,,,40.4019359,-3.7550546,914 644 376,,914 799 630,caf-7@madrid.es,,,,,,,,,,,,,,,,,2014-03-19 08:59:58
Banco de Tiempo de Lekeitio,,Grupo/colectivo,Banco de tiempo - Municipal,"C/ Gamarra, 1",,"C/ Gamarra, 1 ",48280,"C/ Gamarra, 1 48280",Lekeitio,Vizcaya,,País Vasco,,,,,43.3635582,-2.5038233,946 034 100,,,udala@lekeitio.com,,,,,,,,,,,,,,,,,2013-06-07 19:58:51
Banco de Tiempo de León,,Grupo/colectivo,Banco de tiempo - Municipal,,, ,, ,León,León,,Castilla y León,,,,,40.38,-3.86,,,,asolache@gmail.com,,,,,,,,,,,,,,,,,2013-06-07 19:58:56
Banco de Tiempo de Llanes,,Grupo/colectivo,Banco de tiempo - Comunitario,"Casa Rectoral - Centro Juvenil ""El Patiu""",,"Casa Rectoral - Centro Juvenil ""El Patiu"" ",33594,"Casa Rectoral - Centro Juvenil ""El Patiu"" 33594",Posada de Llanes (Llanes),Asturias,,Principado de Asturias,,,,,43.4230708,-4.8638653,985407038,675833315,,bancodetiempollanes@gmail.com,carruhe@hotmail.com,http://bancodetiempodellanes.blogspot.com.es/,https://www.facebook.com/bancodetiempodellanes,2013,,,,,,,,,,,,,2013-12-04 09:21:12
Banco de Tiempo de Logroño,,Grupo/colectivo,Banco de tiempo - Municipal,"C/ Marqués de San Nicolás, 46",,"C/ Marqués de San Nicolás, 46 ",26001,"C/ Marqués de San Nicolás, 46 26001",Logroño,La Rioja,,La Rioja,,,,,42.46772,-2.4451781,941 299 090,,,info@bdtlogrono.org,,,,,,,,,,,,,,,,,2013-06-07 19:58:59
Banco de Tiempo de Los Barrios,,Grupo/colectivo,Banco de tiempo - Municipal,"Pº de la Constitución, 19",,"Pº de la Constitución, 19 ",11370,"Pº de la Constitución, 19 11370",Los Barrios,Cádiz,,Andalucía,,,,,36.1832996,-5.4926638,956 622 069,,,bancodeltiempo@ayto-losbarrios.es,,,,,,,,,,,,,,,,,2013-06-07 19:59:03
Banco de Tiempo de Lugo,,Grupo/colectivo,Banco de tiempo - Municipal,"Aux. Avda. Infanta Elena, 11 Casa Clara Camp. Local 4",,"Aux. Avda. Infanta Elena, 11 Casa Clara Camp. Local 4 ",27003,"Aux. Avda. Infanta Elena, 11 Casa Clara Camp. Local 4 27003",Lugo,Lugo,,Galicia,,,,,43.0118501,-7.6385368,982 202 307,,,info@bdtlugo.net,,,,,,,,,,,,,,,,,2013-06-07 19:59:07
Banco de Tiempo de Macarena,,Asociación,Banco de tiempo - Comunitario,"C/ de la Alcazaba, 1, 2º D",,"C/ de la Alcazaba, 1, 2º D ",18200,"C/ de la Alcazaba, 1, 2º D 18200",Maracena,Granada,,Andalucía,,,,,37.2064517,-3.6292373,658031918,,,bdtmaracena@gmail.com,,http://www.bdtmaracena.blogspot.com.es/,,,,,,,,,,,,,,,2014-07-22 21:02:42
Banco de Tiempo de Majadahonda,"Asociación que promueve el intercambio de servicios y habilidades entre vecinos de Majadahonda, siendo su moneda el Tiempo en horas.",Grupo/colectivo,Banco de tiempo - Comunitario,,, ,28220, 28220,Majadahonda,Madrid,Madrid Noroeste,Comunidad de Madrid,,,Madrid Noroeste,Comarca,40.4731888,-3.8808034,,,,bdt.majadahonda@gmail.com,,https://www.facebook.com/bancotiempomajadahonda,http://bancodetiempomajadahonda.blogspot.com.es/,2013,,"El Banco de tiempo de Majadahonda proporciona a sus socios un medio para ofrecer y demandar todo tipo de servicios y habilidades sin ánimo de lucro y de carácter no profesional entre vecinos de la localidad. 

Estas actividades se miden en tiempo (horas) , y la organización mantiene registro en forma de saldo de las horas recibidas y realizadas, para mantener el principio de equidad y reciprocidad necesario. 

Cada socio recibe un capital inicial de tiempo que le permite demandar servicios desde el primer momento y a su vez ofrece lo que cree posible y oportuno. Para ayudar en la definición de esta oferta existe un formulario con un gran abanico de opciones, y pueden conocerse las habilidades y servicios ofertados por los demás socios para sugerir ideas a cada uno de qué ofrecer y demandar. 

El Banco de Tiempo guarda registro de las ofertas y recibe las demandas de servicios . Éstas son comunicadas a los socios cuyo perfil les permitiría atenderlas , y éstos, sin compromiso alguno , pueden ofrecerse a cumplimentar las peticiones que consideren. El Banco, entonces, pone en contacto a los socios en cuestión, que acuerdan los detalles y comunican al Banco las horas ofrecidas/consumidas para ajustar los saldos de tiempo de los socios.

El Banco de Tiempo promueve el contacto real entre los socios como herramienta fundamental para establecer la confianza necesaria entre personas, y a ese fin, organiza actividades y reuniones de socios y simpatizantes.

Tanto el ingreso como la permanencia y la baja como socio son gratuitos y absolutamente discrecionales y voluntarios. 

Toda la actividad del Banco de Tiempo tiene por principio la buena fe y la transparencia. Cualquier socio puede colaborar o formar parte de la organización del Banco si lo desea y conocer los detalles de la gestión que estime oportuno.

El soporte técnico de toda esta gestión está en permanente revisión y los medios de comunicación básicos son el correo electrónico y aplicaciones en Internet. Para socios sin fácil acceso a medios informáticos, el teléfono es una alternativa posible, aun sin la flexibilidad y facilidad de éstos.",,,,,,,,,,,2015-06-01 20:38:28
Banco de Tiempo de Málaga,,Grupo/colectivo,Banco de tiempo - Municipal,"C/ Victoria, 11 ofic. Nº 5 (IMFE)",,"C/ Victoria, 11 ofic. Nº 5 (IMFE) ",29012,"C/ Victoria, 11 ofic. Nº 5 (IMFE) 29012",Málaga,Málaga,,Andalucía,,,,,36.7279999,-4.4124219,952 061 941,,,,,,,,,,,,,,,,,,,,2013-06-07 19:59:14
Banco de Tiempo de Málaga (Distrito Ctra. de Cádiz),,Grupo/colectivo,Banco de tiempo - Municipal,"C/ Federico García Lorca, 10",,"C/ Federico García Lorca, 10 ",29012,"C/ Federico García Lorca, 10 29012",Málaga,Málaga,,Andalucía,,,,,36.7017354,-4.4424465,951 955 950,,,,,,,,,,,,,,,,,,,,2013-06-07 19:59:23
Banco de Tiempo de Málaga Este - El Palo,,Grupo/colectivo,Banco de tiempo - Municipal,"C/ Bolivia, 63",,"C/ Bolivia, 63 ",29012,"C/ Bolivia, 63 29012",Málaga,Málaga,,Andalucía,,,,,36.7216922,-4.3778139,952 294 577,,,,,,,,,,,,,,,,,,,,2013-07-08 09:44:35
Banco de Tiempo de Malasaña,,Grupo/colectivo,Banco de tiempo - Municipal,,, ,, ,Malasaña,Madrid,,Comunidad de Madrid,,,,,40.380267,-3.6212297,,,,info@bancodetiempomalasana.com,,,,,,,,,,,,,,,,,2014-07-22 21:01:45
Banco de Tiempo de Manoteras,,Grupo/colectivo,Banco de tiempo - Municipal,"C/ de las Cuevas de Almanzora, 46",,"C/ de las Cuevas de Almanzora, 46 ",28033,"C/ de las Cuevas de Almanzora, 46 28033",Madrid,Madrid,,Comunidad de Madrid,,,,,40.4783479,-3.6577244,917 660 866,,,info@bdtmanoteras.org,,,,,,,,,,,,,,,,,2013-06-07 19:59:36
Banco de Tiempo de Marbella,,Grupo/colectivo,Banco de tiempo - Municipal,"C/ Jeddah, 4 bjos.",,"C/ Jeddah, 4 bjos. ",29601,"C/ Jeddah, 4 bjos. 29601",Marbella,Málaga,,Andalucía,,,,,36.5135952,-4.8870764,952 765 193,,,bancodeltiempo.ms@marbella.es,,,,,,,,,,,,,,,,,2013-06-07 19:59:40
Banco de Tiempo de Menorca - Ciutadella,,Grupo/colectivo,Banco de tiempo - Comunitario,"Av. Constitució, 18",,"Av. Constitució, 18 ",07760,"Av. Constitució, 18 07760",Ciutadella de Menorca,Baleares,,Islas Baleares,,,,,40.0021682,3.8414371,971 381 004,,,bancdeltempsmenorca@gmail.com,,,,,,,,,,,,,,,,,2013-06-17 12:37:38
Banco de Tiempo de Menorca - Maó,,Grupo/colectivo,Banco de tiempo - Comunitario,"Camí des Castell, 53",,"Camí des Castell, 53 ",07702,"Camí des Castell, 53 07702",Maó,Baleares,,Islas Baleares,,,,,39.8869786,4.2679142,--,,,bancdeltempsmenorca@gmail.com,,,,,,,,,,,,,,,,,2013-06-17 12:22:45
Banco de Tiempo de Mérida,,Grupo/colectivo,Banco de tiempo - Municipal,C/ Reyes Huertas s/n,- Centro de Mayores pl. 1 ,C/ Reyes Huertas s/n - Centro de Mayores pl. 1 ,06800,C/ Reyes Huertas s/n - Centro de Mayores pl. 1 06800,Mérida,Badajoz,,Extremadura,,,,,38.9182181,-6.3391649,924 303 934/ 615 012 389,,,aba.merida@gmail.com,,,,,,,,,,,,,,,,,2013-06-09 23:50:56
Banco de Tiempo de Mesía,,Grupo/colectivo,Banco de tiempo - Municipal,,, ,, ,Mesía,A Coruña,,Galicia,,,,,43.1135289,-8.2723859,981 687 001,,,,,,,,,,,,,,,,,,,,2013-06-07 20:01:03
Banco de Tiempo de Mijas,,Grupo/colectivo,Banco de tiempo - Municipal,C/ Río Barbate (Zona Doña Ermita),,C/ Río Barbate (Zona Doña Ermita) ,29651,C/ Río Barbate (Zona Doña Ermita) 29651,Mijas,Málaga,,Andalucía,,,,,36.5663156,-4.6812086,952 663 574,,,bdtmijas@mijas.es,,,,,,,,,,,,,,,,,2013-06-07 20:01:07
Banco de Tiempo de Momo,,Grupo/colectivo,Banco de tiempo - Municipal,"Barrio de la Rañada, 25",,"Barrio de la Rañada, 25 ",39716,"Barrio de la Rañada, 25 39716",El Bosque,Cantabria,,Cantabria,,,,,43.3868494,-3.7263452,942 522 145 / 665 110 802,,,mujeresdelospueblos@hotmail.com,,,,,,,,,,,,,,,,,2013-06-07 20:01:18
Banco de Tiempo de Monda,,Grupo/colectivo,Banco de tiempo - Municipal,C/ del Llanete s/n,,C/ del Llanete s/n ,29110,C/ del Llanete s/n 29110,Monda,Málaga,,Andalucía,,,,,36.6296725,-4.8319736,667 424 516,,,bancodeltiempomonda@yahoo.es,,,,,,,,,,,,,,,,,2013-06-07 20:01:21
Banco de Tiempo de Monforte de Lemos,,Grupo/colectivo,Banco de tiempo - Municipal,,, ,, ,Monforte de Lemos,Lugo,,Galicia,,,,,42.5190217,-7.5158063,982 416 350,,,obancodetempo@gmail.com,,,,,,,,,,,,,,,,,2013-06-07 20:01:25
Banco de Tiempo de Monzón,,Otros,Banco de tiempo - Municipal,"Plaza Mayor, 4",,"Plaza Mayor, 4 ",22400,"Plaza Mayor, 4 22400",Monzón,Huesca,Aragon,Aragón,,,,,41.910798,0.1920456,974403009,671825120,974404807,,,,,2011,,Este Banco de Tiempo nació en 2011 con el objetivo de integrar a la población inmigrante y actualmente aspira a ser una red de contactos que genere capital humano y nos acerque cada día un poquito más a nuestros/as vecinos/as.,,,,,,,,,,,2015-01-20 15:10:41
Banco de Tiempo de Móstoles,,Grupo/colectivo,Banco de tiempo - Municipal,"Plaza del Turia 2, Local 7",,"Plaza del Turia 2, Local 7 ",,"Plaza del Turia 2, Local 7 ",Móstoles,Madrid,,Comunidad de Madrid,,,,,40.32135,-3.865003,,,,bancodeltiempomostoles@gmail.com,,,,,,,,,,,,,,,,,2013-06-17 09:31:24
Banco de Tiempo de Motril,,Grupo/colectivo,Banco de tiempo - Municipal,"C/ Río Ebro, 8 1º A",,"C/ Río Ebro, 8 1º A ",18600,"C/ Río Ebro, 8 1º A 18600",Motril,Granada,,Andalucía,,,,,36.7433096,-3.5228744,958 825 957 / 958 825 859,,,bancodeltiempo@motril.es,mujer@motril.es,,,,,,,,,,,,,,,,2013-06-07 20:01:43
Banco de Tiempo de Murcia,,Asociación,Banco de tiempo - Municipal,"Calle del Carmen, nº 32",Unidad de Trabajo Social Cabezo de Torres,"Unidad de Trabajo Social Cabezo de Torres - Calle del Carmen, nº 32",30110,"Unidad de Trabajo Social Cabezo de Torres - Calle del Carmen, nº 32 30110",El Cabezo de Torres,Murcia,,Región de Murcia,,,,,38.0255514,-1.1252025,689 691 589,968 87 97 10,,bancodeltiempo@ayto-murcia.es,,,,2005,,,,,,,,,,,,,2014-10-23 18:23:57
Banco de Tiempo de Nuevo Baztan,,Grupo/colectivo,Banco de tiempo - Municipal,"Av. De Glasgow, s/n",,"Av. De Glasgow, s/n ",28514,"Av. De Glasgow, s/n 28514",Nuevo Baztan,Madrid,,Comunidad de Madrid,,,,,40.3583079,-3.2560131,918 734 158 / 918 734 865,,,juventud@ayto-nuevobaztan.es,,,,,,,,,,,,,,,,,2013-06-12 17:36:03
Banco de Tiempo de Otxarkoaga - Otxartruke,,Grupo/colectivo,Banco de tiempo - Municipal,"Av. Pau Casals, 194",,"Av. Pau Casals, 194 ",48004,"Av. Pau Casals, 194 48004",Bilbao,Vizcaya,,País Vasco,,,,,43.2587497,-2.9006583,944 120 387,,,,,,,,,,,,,,,,,,,,2013-06-07 20:02:59
Banco de Tiempo de Palencia,,Grupo/colectivo,Banco de tiempo - Municipal,,, ,, ,,Palencia,,Castilla y León,,,,,42.011121,-4.532032,,,,bdtpalencia@hotmail.es,,,,,,,,,,,,,,,,,2013-06-07 20:03:18
Banco de Tiempo de Paracuellos de Jarama,,Grupo/colectivo,Banco de tiempo - Municipal,"Pl. de la Constitución, 1",,"Pl. de la Constitución, 1 ",28860,"Pl. de la Constitución, 1 28860",Paracuellos Del Jarama,Madrid,,Comunidad de Madrid,,,,,40.38,-3.86,916 580 001 / 699 589 085,,,tiemposdetrueque@gmail.com,,,,,,,,,,,,,,,,,2013-06-07 20:04:29
Banco de Tiempo de Parla,,Grupo/colectivo,Banco de tiempo - Municipal,"C/ Ramón y Cajal, 5",,"C/ Ramón y Cajal, 5 ",28981,"C/ Ramón y Cajal, 5 28981",Madrid,Madrid,,Comunidad de Madrid,,,,,40.2363406,-3.7733312,916 982 411,,,,,,,,,,,,,,,,,,,,2013-06-07 20:04:33
Banco de Tiempo de Paterna,,Grupo/colectivo,Banco de tiempo - Municipal,"C/Músico Antonio Cabeza, s/nº",,"C/Músico Antonio Cabeza, s/nº ",46980,"C/Músico Antonio Cabeza, s/nº 46980",Paterna,Valencia,,Comunidad Valenciana,,,,,39.503376,-0.437099,622 755 772,,,bdt@afamo.es,,,,,,,,,,,,,,,,,2013-06-07 20:04:38
Banco de Tiempo de Periana,,Grupo/colectivo,Banco de tiempo - Municipal,"Pº Bellavista, s/nº",,"Pº Bellavista, s/nº ",29710,"Pº Bellavista, s/nº 29710",Periana,Málaga,,Andalucía,,,,,36.9270448,-4.1896253,952 536 016,,,,,,,,,,,,,,,,,,,,2013-06-07 20:04:42
Banco de Tiempo de Pla de Palau,,Grupo/colectivo,Banco de tiempo - Municipal,"C/ Saragossa, 27",,"C/ Saragossa, 27 ",17003,"C/ Saragossa, 27 17003",Girona,Girona,,Cataluña,,,,,41.9708262,2.8188167,972 426 390,,,ccpalau@ajgirona.org,,,,,,,,,,,,,,,,,2013-06-07 20:04:48
Banco de Tiempo de Plasencia,,Grupo/colectivo,Banco de tiempo - Municipal,,, ,, ,Plasencia,Cáceres,,Extremadura,,,,,40.030235,-6.087016,,,,elbordon@pruebanostop.com,,,,,,,,,,,,,,,,,2013-06-07 20:04:51
Banco de Tiempo de Poble Nou,,Grupo/colectivo,Banco de tiempo - Municipal,"Camí Antic de València, 96-116",Casal Bac de Roda ,"Casal Bac de Roda  - Camí Antic de València, 96-116",08019,"Casal Bac de Roda - Camí Antic de València, 96-116 08019",Barcelona,Barcelona,,Cataluña,,,,,41.40673,2.2038501,933 032 447,,,bdtpoblenou@gmail.com,,,,,,,,,,,,,,,,,2013-06-09 23:16:46
"Banco de Tiempo de Puente de Vallecas, Villa de Vallecas y Villaverde - CAF4",,Grupo/colectivo,Banco de tiempo - Municipal,"C/ Conde Rodríguez San Pedro, 59",,"C/ Conde Rodríguez San Pedro, 59 ",28053,"C/ Conde Rodríguez San Pedro, 59 28053",Madrid,Madrid,,Comunidad de Madrid,,,,,40.3835206,-3.67027,914 780 630,914 774 021,,caf-4@madrid.es,,,,,,,,,,,,,,,,,2014-03-31 09:28:23
Banco de Tiempo de Puerto de la Torre,,Grupo/colectivo,Banco de tiempo - Municipal,"C/ Victor Hugo, 5",,"C/ Victor Hugo, 5 ",29190,"C/ Victor Hugo, 5 29190",Malaga,Málaga,,Andalucía,,,,,36.7343542,-4.4834524,952 100 800,,,bdt.ceper@gmail.com,,,,,,,,,,,,,,,,,2013-06-07 20:05:01
Banco de Tiempo de Puig de Sant Pere,,Grupo/colectivo,Banco de tiempo - Municipal,"C/ de los Corralasses, 4",,"C/ de los Corralasses, 4 ",07012,"C/ de los Corralasses, 4 07012",Palma De Mallorca,Baleares,,Islas Baleares,,,,,39.5697122,2.6425932,971 720 230,,,bdt.santpere@gmail.com,cculturalsantpere@gmail.com,,,,,,,,,,,,,,,,2013-06-17 09:24:23
Banco de Tiempo de Puigcerdà,,Grupo/colectivo,Banco de tiempo - Municipal,"Pl. Regne de mallorca, baixos",,"Pl. Regne de mallorca, baixos ",17520,"Pl. Regne de mallorca, baixos 17520",Puigcerdà,Girona,,Cataluña,,,,,42.4335392,1.9291154,972 882 121,,,bancdeltempspuigcerda@gmail.com,,,,,,,,,,,,,,,,,2013-06-07 20:05:10
Banco de Tiempo de Quart de Poblet,,Grupo/colectivo,Banco de tiempo - Municipal,C/ de Vicente Blasco Ibáñez,,C/ de Vicente Blasco Ibáñez ,46930,C/ de Vicente Blasco Ibáñez 46930,Quart de Poblet,Valencia,,Comunidad Valenciana,,,,,39.4576434,-0.4514649,961 521 231,,,dona@quartdepoblet.org,bdtquartdepoblet@gmail.com,,,,,,,,,,,,,,,,2015-05-27 12:39:28
Banco de Tiempo de Reus,,Grupo/colectivo,Banco de tiempo - Municipal,"C/ Sta. Teresa, 22, 1er",,"C/ Sta. Teresa, 22, 1er ",43201,"C/ Sta. Teresa, 22, 1er 43201",Reus,Tarragona,,Cataluña,,,,,41.156211,1.1077258,977 910 672,,,bdtreus@gmail.com,,,,,,,,,,,,,,,,,2013-06-07 20:05:18
Banco de Tiempo de Rivas Vaciamadrid,,Grupo/colectivo,Banco de tiempo - Municipal,"Avda. del Deporte s/n - Casa asoc., desp. Nº 0",,"Avda. del Deporte s/n - Casa asoc., desp. Nº 0 ",28529,"Avda. del Deporte s/n - Casa asoc., desp. Nº 0 28529",Rivas Vaciamadrid,Madrid,,Comunidad de Madrid,,,,,40.326824,-3.517985,913 222 346,,,intertiempoderivas@yahoo.es,,,,,,,,,,,,,,,,,2013-06-07 20:05:54
Banco de Tiempo de Rubí,,Grupo/colectivo,Banco de tiempo - Municipal,C/ Joan Puig,local 2 ,C/ Joan Puig local 2 ,08191,C/ Joan Puig local 2 08191,Rubí,Barcelona,,Cataluña,,,,,41.483998,2.0325254,935 885 005,,,tempsnostre@gmail.com,,,,,,,,,,,,,,,,,2013-06-09 23:17:36
Banco de Tiempo de Russafa,,Grupo/colectivo,Banco de tiempo - Municipal,"C/ Pedro III el Grande, 26, esq. Dr. Sumsi",,"C/ Pedro III el Grande, 26, esq. Dr. Sumsi ",46006,"C/ Pedro III el Grande, 26, esq. Dr. Sumsi 46006",Valencia,Valencia,,Comunidad Valenciana,,,,,39.4699075,-0.3762881,,,,bdtrussafa@hotmail.com,,,,,,,,,,,,,,,,,2013-06-07 20:06:04
Banco de Tiempo de Sabadell,,Grupo/colectivo,Banco de tiempo - Municipal,"Ctra. Prats de Lluçanés, 2",Cal Balsach,"Cal Balsach - Ctra. Prats de Lluçanés, 2",08208,"Cal Balsach - Ctra. Prats de Lluçanés, 2 08208",Sabadell,Barcelona,,Cataluña,,,,,41.5560263,2.1021911,937 172 392,,,xarxa.sabadell@gmail.com,,,,,,,,,,,,,,,,,2013-06-09 23:18:10
Banco de Tiempo de Sagrada Familia,,Grupo/colectivo,Banco de tiempo - Municipal,"C/Padilla, 210",Espai 210,"Espai 210 - C/Padilla, 210",08013,"Espai 210 - C/Padilla, 210 08013",Barcelona,Barcelona,,Cataluña,,,,,41.4039541,2.179643,932 653 645,,,bdtsagradafamilia@gmail.com,,,,,,,,,,,,,,,,,2013-06-09 23:18:40
Banco de Tiempo de Salamanca,,Grupo/colectivo,Banco de tiempo - Municipal,"C/ Transportistas, 3 bajo",,"C/ Transportistas, 3 bajo ",37006,"C/ Transportistas, 3 bajo 37006",Salamanca,Salamanca,,Castilla y León,,,,,40.97442,-5.6675367,923 123 119,,,secretaria@bdtsalamanca.org,salamancabdt@gmail.com,http://www.bdtsalamanca.org/,,,,,,,,,,,,,,,2013-07-20 19:24:22
"Banco de Tiempo de Salamanca, Retiro, Vicálvaro y Moratalaz - CAF5",,Grupo/colectivo,Banco de tiempo - Municipal,"C/ de la Fuente Carrantona, 12",,"C/ de la Fuente Carrantona, 12 ",28030,"C/ de la Fuente Carrantona, 12 28030",Madrid,Madrid,,Comunidad de Madrid,,,,,40.4061508,-3.632331,915 648 184,,915 647 705,caf-5@madrid.es,,,,,,,,,,,,,,,,,2014-03-19 08:59:00
Banco de Tiempo de San Anton,,Grupo/colectivo,Banco de tiempo - Municipal,C/ de San Lázaro,,C/ de San Lázaro ,16002,C/ de San Lázaro 16002,Cuenca,Cuenca,,Castilla-La Mancha,,,,,40.0791165,-2.1386297,969 235 917,,,bancodeltiemposananton@gmail.com,,,,,,,,,,,,,,,,,2013-06-07 20:06:22
Banco de Tiempo de San Javier,,Grupo/colectivo,Banco de tiempo - Municipal,"C/ Bernal, 13",,"C/ Bernal, 13 ",30720,"C/ Bernal, 13 30720",Santiago de La Ribera,Murcia,,Región de Murcia,,,,,37.7991141,-0.8050798,968 190 782,,,bancodeltiempo@sanjavier.es,,,,,,,,,,,,,,,,,2013-06-07 20:06:57
Banco de Tiempo de Sant Cugat,,Grupo/colectivo,Banco de tiempo - Municipal,"Jardins del Monestir, s/n",Casa de Cultura,"Casa de Cultura - Jardins del Monestir, s/n",08172,"Casa de Cultura - Jardins del Monestir, s/n 08172",Sant Cugat,Barcelona,,Cataluña,,,,,41.4699731,2.0836809,936 746 351,,,bancdeltemps@santcugat.cat,,,,,,,,,,,,,,,,,2013-06-09 23:19:11
Banco de Tiempo de Sant Joan Despí,,Grupo/colectivo,Banco de tiempo - Municipal,"Av. Barcelona, 41-45",L'Area a la Persona,"L'Area a la Persona - Av. Barcelona, 41-45",08970,"L'Area a la Persona - Av. Barcelona, 41-45 08970",Sant Joan Despí,Barcelona,,Cataluña,,,,,41.3681706,2.0684906,934 770 051 (ext.2137),,,bancdeltemps@sjdespi.net,,,,,,,,,,,,,,,,,2013-06-09 23:23:29
Banco de Tiempo de Sant Josep,,Grupo/colectivo,Banco de tiempo - Municipal,"C/ Consulturi, 5",,"C/ Consulturi, 5 ",07830,"C/ Consulturi, 5 07830",Sant Josep,Baleares,,Islas Baleares,,,,,38.908951,1.428115,971 800 975,,,,,,,,,,,,,,,,,,,,2013-06-10 00:10:28
Banco de Tiempo de Sant Martí,,Grupo/colectivo,Banco de tiempo - Municipal,"Gran Via de les Corts Catalanes, 837 - Centre Cívic La Farinera",,"Gran Via de les Corts Catalanes, 837 - Centre Cívic La Farinera ",08018,"Gran Via de les Corts Catalanes, 837 - Centre Cívic La Farinera 08018",Barcelona,Barcelona,,Cataluña,,,,,41.4046434,2.1883083,932 918 404,,,bdtsanmarti@hotmail.com,,,,,,,,,,,,,,,,,2013-06-07 20:07:14
Banco de Tiempo de Sant Vicent del Raspeig,,Grupo/colectivo,Banco de tiempo - Municipal,,, ,03690, 03690,Sant Vicent Del Raspeig,Alicante,,Comunidad Valenciana,,,,,38.427072,-0.551032,610 435 021 / 669 022 449,,,bdt@bdtsanvicente.org,,,,,,,,,,,,,,,,,2013-06-07 20:07:19
Banco de Tiempo de Santa Brígida,,Grupo/colectivo,Banco de tiempo - Municipal,"C/ Tenderete, 7",,"C/ Tenderete, 7 ",35300,"C/ Tenderete, 7 35300",Santa Brigida,Las Palmas,,Canarias,,,,,28.0336573,-15.4989715,928 640 072,,,,,,,,,,,,,,,,,,,,2013-06-07 20:07:23
Banco de Tiempo de Santa Cristina d'Aro,,Grupo/colectivo,Banco de tiempo - Municipal,Punt d'Igualdad de Santa Cristina d'Aro,,Punt d'Igualdad de Santa Cristina d'Aro ,17246,Punt d'Igualdad de Santa Cristina d'Aro 17246,Santa Cristina d'Aro,Girona,,Cataluña,,,,,41.8137777,2.9972986,972 837 391,,,igualtat@santacristina.net,,,,,,,,,,,,,,,,,2013-06-07 20:07:30
Banco de Tiempo de Santa Lucía,,Grupo/colectivo,Banco de tiempo - Municipal,"C/ Garajonay, 1 - Centro de Dia Sardina del Sur",,"C/ Garajonay, 1 - Centro de Dia Sardina del Sur ",35110,"C/ Garajonay, 1 - Centro de Dia Sardina del Sur 35110",Santa Lucia,Las Palmas,,Canarias,,,,,27.856054,-15.4595306,928 759 746,,,,,,,,,,,,,,,,,,,,2013-06-07 20:07:34
Banco de Tiempo de Santa Marta de Tormes,,Grupo/colectivo,Banco de tiempo - Municipal,,, ,, ,Santa Marta de Tormes,Salamanca,,Castilla y León,,,,,40.9497273,-5.6262751,,,,bancodetiempodesantamarta@hotmail.com,,,,,,,,,,,,,,,,,2013-06-07 20:07:38
Banco de Tiempo de Santander,,Grupo/colectivo,Banco de tiempo - Municipal,"C/ General Dávila, 124",,"C/ General Dávila, 124 ",39002,"C/ General Dávila, 124 39002",Santander,Cantabria,,Cantabria,,,,,43.4675058,-3.8059331,942 200 833 / 942 203 130,,,voluntariado@ayto-santander.es,,,,,,,,,,,,,,,,,2013-06-07 20:07:42
Banco de Tiempo de Santiago de Compostela,,Grupo/colectivo,Banco de tiempo - Municipal,C/ Isaac Díaz Pardo 2-4 (Zona Galeras),,C/ Isaac Díaz Pardo 2-4 (Zona Galeras) ,15705,C/ Isaac Díaz Pardo 2-4 (Zona Galeras) 15705,Santiago,A Coruña,,Galicia,,,,,42.8970535,-8.5418899,981 542 465,,,,,,,,,,,,,,,,,,,,2013-06-07 20:07:45
Banco de Tiempo de Santomera,,Grupo/colectivo,Banco de tiempo - Municipal,"C/ de las Cuatro Esquinas, 58 - Casa Grande",,"C/ de las Cuatro Esquinas, 58 - Casa Grande ",30140,"C/ de las Cuatro Esquinas, 58 - Casa Grande 30140",Santomera,Murcia,,Región de Murcia,,,,,38.062259,-1.045205,9688 860 633,,,,,,,,,,,,,,,,,,,,2013-06-07 20:07:57
Banco de Tiempo de Sants,,Grupo/colectivo,Banco de tiempo - Comunitario,"C/ Numància, 7-11",,"C/ Numància, 7-11 ",08029,"C/ Numància, 7-11 08029",Barcelona,Barcelona,,Cataluña,,,,,41.3812446,2.1412523,,,,bdtsants@gmail.com,,http://www.bancdetempsdesants.org/,,,,,,,,,,,,,,,2013-11-12 11:41:34
Banco de Tiempo de Sarrià-Sant Gervasi,,Grupo/colectivo,Banco de tiempo - Municipal,"C/ Jaume Piquet, 23 - Assoc. Cultural Casa Orlandai",,"C/ Jaume Piquet, 23 - Assoc. Cultural Casa Orlandai ",08017,"C/ Jaume Piquet, 23 - Assoc. Cultural Casa Orlandai 08017",Barcelona,Barcelona,,Cataluña,,,,,41.3983289,2.1246602,932 524 262,,,bancdeltemps@casaorlandai.cat,,,,,,,,,,,,,,,,,2013-06-07 20:08:35
Banco de Tiempo de Sitges,,Grupo/colectivo,Banco de tiempo - Municipal,Plaça Catalunya,Assoc. De Dones de Sitges. Centre Cívic Poble Sec,Assoc. De Dones de Sitges. Centre Cívic Poble Sec - Plaça Catalunya,08870,Assoc. De Dones de Sitges. Centre Cívic Poble Sec - Plaça Catalunya 08870,Sitges,Barcelona,,Cataluña,,,,,41.2355705,1.8068494,938 111 166,,,igualtat@gmail.com,donessitges@gmail.com,http://bancdeltempssitges.org/,,,,,,,,,,,,,,,2013-12-02 09:56:16
Banco de Tiempo de Son Roca,,Grupo/colectivo,Banco de tiempo - Municipal,"C/ Cap Formentor, 13 1ª Planta",,"C/ Cap Formentor, 13 1ª Planta ",07013,"C/ Cap Formentor, 13 1ª Planta 07013",Palma De Mallorca,Baleares,,Islas Baleares,,,,,39.5868256,2.5941239,971 790 729 / 651 516 173,,,reditsr@hotmail.com,,,,,,,,,,,,,,,,,2013-06-10 00:04:08
Banco de Tiempo de Soria,,Grupo/colectivo,Banco de tiempo - Municipal,"C/ Termancia, 5 - Bar Bristol",,"C/ Termancia, 5 - Bar Bristol ",42001,"C/ Termancia, 5 - Bar Bristol 42001",Soria,Soria,,Castilla y León,,,,,41.7094169,-1.944132,,,,bancodetiemposoria@gmail.com,,,,,,,,,,,,,,,,,2013-06-07 20:09:01
Banco de Tiempo de Sta. María de Palautordera,,Grupo/colectivo,Banco de tiempo - Municipal,"Carrer Consolat de Mar, s/n  ",Centre Cívic,"Centre Cívic - Carrer Consolat de Mar, s/n  ",08460,"Centre Cívic - Carrer Consolat de Mar, s/n 08460",Santa María De Palautordera,Barcelona,,Cataluña,,,,,41.6923244,2.4468543,648 888 791,,,bdtpalau@gmail.com,,,,,,,,,,,,,,,,,2013-06-09 23:26:10
Banco de Tiempo de Sta. Perpétua de Mogoda,,Grupo/colectivo,Banco de tiempo - Municipal,"C/ Enric Granados, s/n",Centre Cívic El Vapor,"Centre Cívic El Vapor - C/ Enric Granados, s/n",08130,"Centre Cívic El Vapor - C/ Enric Granados, s/n 08130",Sta. Perpètua De Mogoda,Barcelona,,Cataluña,,,,,41.5362149,2.180781,935 600 248,,,bancdeltemps.staperpetua@hotmail.com,,,,,,,,,,,,,,,,,2013-06-09 23:26:38
Banco de Tiempo de Talavera de la Reina,,Grupo/colectivo,Banco de tiempo - Municipal,"C/ de la Cerería, 25 entrepl.",,"C/ de la Cerería, 25 entrepl. ",45600,"C/ de la Cerería, 25 entrepl. 45600",Talavera de la Reina,Toledo,,Castilla-La Mancha,,,,,39.962884,-4.8304536,,,,economiaalternativatalavera@gmail.com,,,,,,,,,,,,,,,,,2013-06-07 20:09:12
Banco de Tiempo de Tarifa,,Grupo/colectivo,Banco de tiempo - Municipal,,, ,, ,Tarifa,Cádiz,,Andalucía,,,,,36.018776,-5.600819,,,,bancodeltiempotarifa@gmail.com,,,,,,,,,,,,,,,,,2013-06-07 20:09:15
Banco de Tiempo de Terrassa,,Grupo/colectivo,Banco de tiempo - Municipal,"Avda. Àngel Sallent, 55",C. Cívic Mª Aurèlia Capmany ,"C. Cívic Mª Aurèlia Capmany  - Avda. Àngel Sallent, 55",08224,"C. Cívic Mª Aurèlia Capmany - Avda. Àngel Sallent, 55 08224",Terrassa,Barcelona,,Cataluña,,,,,41.5574335,2.0000485,937 333 098,,,,,,,,,,,,,,,,,,,,2013-06-09 23:27:07
"Banco de Tiempo de Tetuán, Fuencarrral-El Pardo y Chamartin - CAF6",,Grupo/colectivo,Banco de tiempo - Municipal,"C/ Buitrago de Lozoya, 22",,"C/ Buitrago de Lozoya, 22 ",28035,"C/ Buitrago de Lozoya, 22 28035",Madrid,Madrid,,Comunidad de Madrid,,,,,40.4605289,-3.7083493,913 981 438,,913 117 542,caf-6@madrid.es,,,,,,,,,,,,,,,,,2014-03-19 08:59:30
Banco de Tiempo de Toledo (Asociación La Clave Social Castilla-La Mancha),,Asociación,Banco de tiempo - Municipal,"C/ Ciudadado 7, 1º pl.",,"C/ Ciudadado 7, 1º pl. ",45006,"C/ Ciudadado 7, 1º pl. 45006",Toledo,Toledo,,Castilla-La Mancha,,,,,39.8612181,-4.0026237,,603 84 64 61,,laclavesocial@gmail.com,,,,2014,,"El Banco del Tiempo de Toledo es un sistema gratuito de intercambio de tiempo entre hombres y mujeres, donde se pueden compartir:
- Conocimientos
- Habilidades
- Experiencias

La moneda de pago es el tiempo que tarda cada persona en realizar el servicio.

Todos los intercambios tienen el mismo valor.

Pueden participar todas las personas que deseen intercambiar tareas, aprender nuevos conocimientos, aprender aficiones y conocer gente nueva.

Las actividades se puedes realizar de manera grupal o individual.
",,,,,,,,,,,2014-11-20 19:12:40
Banco de Tiempo de Tolosa,,Grupo/colectivo,Banco de tiempo - Municipal,,, ,, ,Tolosa,Gipuzkoa,,País Vasco,,,,,40.38,-3.86,943 670 383,,,bancodeltiempotolosa@gmail.com,,,,,,,,,,,,,,,,,2013-06-07 20:10:29
Banco de Tiempo de Torreblanca,,Asociación,Banco de tiempo - Comunitario,"C/ San Jaime, 10",,"C/ San Jaime, 10 ",12596,"C/ San Jaime, 10 12596",Torreblanca,Castellón,,Comunidad Valenciana,,,,,40.2204433,0.1959207,964420379,,,bdttorreblanca@outlook.com,,http://bancodetiempodetorreblanca.blogspot.com.es/,,2013,,,,,,,,,,,,,2013-11-22 10:06:42
Banco de Tiempo de Torrevieja,,Grupo/colectivo,Banco de tiempo - Municipal,,, ,, ,Torrevieja,Alicante,,Comunidad Valenciana,,,,,37.9847003,-0.6808233,699 467 962,,,bancodetiempotorrevieja@hotmail.com,,,,,,,,,,,,,,,,,2013-06-07 20:10:37
Banco de Tiempo de Triana,,Asamblea,Banco de tiempo - Comunitario,"Centro Cívico Las Columnas, en la calle  Pureza, 79.",,"Centro Cívico Las Columnas, en la calle  Pureza, 79. ",,"Centro Cívico Las Columnas, en la calle Pureza, 79. ",Sevilla,Sevilla,,Andalucía,,,,,37.3831423,-6.0002632,,,,bancodeltiempotriana@gmail.com,,http://bancodeltiempotriana.blogspot.com.es/,,,,Banco de Tiempo surgido a partir del 15M,,,,,,,,,,,2015-07-23 14:44:42
Banco de Tiempo de Úbeda,,Grupo/colectivo,Banco de tiempo - Municipal,"Av. De la Constitución, 10 - bakp",,"Av. De la Constitución, 10 - bakp ",23400,"Av. De la Constitución, 10 - bakp 23400",Úbeda,Jaén,,Andalucía,,,,,38.0104592,-3.3772307,953 793 634,,,info@bancodeltiempoubeda.com,,,,,,,,,,,,,,,,,2013-06-07 20:10:47
Banco de Tiempo de Valdemorillo,,Espacio de ocio,Banco de tiempo - Municipal,Casa de la Juventud,,Casa de la Juventud ,28210,Casa de la Juventud 28210,Valdemorillo,Madrid,Madrid Noroeste,Comunidad de Madrid,,,Madrid Noroeste,Comarca,40.4991765,-4.067629,,,,,,,,2013,,,,,,,,,,,,,2014-05-19 22:52:45
Banco de Tiempo de Valdemoro,,Grupo/colectivo,Banco de tiempo - Municipal,C/ Apolo 22,,C/ Apolo 22 ,,C/ Apolo 22 ,Valdemoro,Madrid,,Comunidad de Madrid,,,,,40.1791124,-3.6807557,918 099 966,,,,,,,,,,,,,,,,,,,,2013-06-07 20:10:54
Banco de Tiempo de Valladolid,,Grupo/colectivo,Banco de tiempo - Municipal,"C/ San Sebastián, 7",,"C/ San Sebastián, 7 ",47009,"C/ San Sebastián, 7 47009",Valladolid,Valladolid,,Castilla y León,,,,,41.663629,-4.7319972,983 424 201,,,info@bancodeltiempodevalladolid.org.es,,,,,,,,,,,,,,,,,2013-06-07 20:11:52
Banco de Tiempo de Vélez,,Grupo/colectivo,Banco de tiempo - Municipal,"C/Pescadería Vieja, 11 bjo.",,"C/Pescadería Vieja, 11 bjo. ",,"C/Pescadería Vieja, 11 bjo. ",Vélez Málaga,Málaga,,Andalucía,,,,,36.7829139,-4.1027903,952 506 057,,,voluntariado@ayto-velezmalaga.es,,,,,,,,,,,,,,,,,2013-06-07 20:11:17
Banco de Tiempo de Vigo - Valladares,,Grupo/colectivo,Banco de tiempo - Municipal,"Estrada Xeral de Valladares, 261",,"Estrada Xeral de Valladares, 261 ",36315,"Estrada Xeral de Valladares, 261 36315",Vigo,Pontevedra,,Galicia,,,,,42.1832582,-8.7426101,986 467 053,,,cvallada@ctv.es,bancodeltiempocvcvalladares@telefonica.net,,,,,,,,,,,,,,,,2013-06-07 20:12:23
Banco de Tiempo de Vilafant,,Grupo/colectivo,Banco de tiempo - Municipal,"C/ de Figueres, 9",,"C/ de Figueres, 9 ",17740,"C/ de Figueres, 9 17740",Vilafant,Girona,,Cataluña,,,,,42.2468729,2.9381634,972 546 632,,,btvilafant@gmail.com,,,,,,,,,,,,,,,,,2013-06-07 20:12:27
Banco de Tiempo de Villamayor,,Grupo/colectivo,Banco de tiempo - Municipal,,, ,, ,Villamayor,Salamanca,,Castilla y León,,,,,41.0016627,-5.6937933,,,,bdtempresariosdevillamayor@gmail.com,,,,,,,,,,,,,,,,,2013-06-07 20:12:38
Banco de Tiempo de Villanueva del Río y Minas,,Grupo/colectivo,Banco de tiempo - Municipal,"C/ Juan Gómez Torga, 12",,"C/ Juan Gómez Torga, 12 ",41350,"C/ Juan Gómez Torga, 12 41350",Villanueva del Río y Minas,Sevilla,,Andalucía,,,,,37.6554687,-5.7122139,617 689 478,,,asiminera@hotmail.com,,,,,,,,,,,,,,,,,2013-06-07 20:12:41
Banco de Tiempo de Villares de la Reina,,Grupo/colectivo,Banco de tiempo - Municipal,,, ,, ,Villares de la Reina,Salamanca,,Castilla y León,,,,,41.01053,-5.648107,,,,juansantanadesalamanca@gmail.com,,,,,,,,,,,,,,,,,2013-06-07 20:12:52
Banco de Tiempo de Vitoria-Gasteiz,,Grupo/colectivo,Banco de tiempo - Municipal,"Edificio Rogelia de Álvaro C, 1ª pl. - C/ Panamá s/n",,"Edificio Rogelia de Álvaro C, 1ª pl. - C/ Panamá s/n ",01012,"Edificio Rogelia de Álvaro C, 1ª pl. - C/ Panamá s/n 01012",Vitoria-Gasteiz,Álava,,País Vasco,,,,,42.8498032,-2.6729997,945 122 814,,,bancodeltiempotrueque@hotmail.com,,,,,,,,,,,,,,,,,2013-06-07 20:12:59
Banco de Tiempo de Zafarraya,,Grupo/colectivo,Banco de tiempo - Municipal,,, ,, ,Zafarraya,Granada,,Andalucía,,,,,36.9994992,-4.1616143,,,,,,,,,,,,,,,,,,,,,2013-06-07 20:13:12
Banco de Tiempo de Zamora,"Somos un BDT de iniciativa ciudadana, no dependemos ni tenemos nada que ver con el ayuntamiento ",Asociación,Banco de tiempo - Comunitario,Plaza de Sta. Ana s/n,Palacio la Alhondiga,Palacio la Alhondiga - Plaza de Sta. Ana s/n,49006,Palacio la Alhondiga - Plaza de Sta. Ana s/n 49006,Zamora,Zamora,Centro - Casco antiguo,Castilla y León,Centro - Casco antiguo,,,Barrio,41.5072662,-5.7459823,633 162 197,,,bancodeltiempozamora@gmail.com,,http://bancodeltiempozamora.blogspot.com/,,2010,,"Banco del tiempo Zamora es una iniciativa ciudadana, no dependemos del ayuntamiento (ni queremos tener nada que ver ...). También estamos fuera de Zamora , en pueblos cercanos. 

",,,,Atendemos al público los Jueves de 18.00 - 21.00,,,,,,,2013-06-17 12:31:25
Banco de Tiempo de Zaragoza (Secretaría),,Grupo/colectivo,Banco de tiempo - Municipal,"C/ Sant Vicente Paúl, 2",,"C/ Sant Vicente Paúl, 2 ",50001,"C/ Sant Vicente Paúl, 2 50001",Zaragoza,Zaragoza,,Aragón,,,,,41.6508693,-0.8770841,976 393 305,,,,,,,,,,,,,,,,,,,,2013-06-07 20:13:20
Banco de Tiempo de Zaragoza A.VV. Arrabal,,Grupo/colectivo,Banco de tiempo - Municipal,"C/ Mariano Pano  y Ruata, 9-11 bjos.",,"C/ Mariano Pano  y Ruata, 9-11 bjos. ",50015,"C/ Mariano Pano y Ruata, 9-11 bjos. 50015",Zaragoza,Zaragoza,,Aragón,,,,,41.692694,-0.8627473,976 061 824,,,arrabal@fabz.org,,,,,,,,,,,,,,,,,2013-06-07 20:13:23
Banco de Tiempo de Zaragoza A.VV. La Cartuja,,Grupo/colectivo,Banco de tiempo - Municipal,"C/ Salduba, 8",,"C/ Salduba, 8 ",05003,"C/ Salduba, 8 05003",Alcaldía de la Cartuja,Zaragoza,,Aragón,,,,,40.38,-3.86,,,,,,,,,,,,,,,,,,,,,2013-06-07 20:14:00
Banco de Tiempo de Zaragoza A.VV. La Jota,,Grupo/colectivo,Banco de tiempo - Municipal,"C/ de María Pilar de las Heras Dopereiro, 3",,"C/ de María Pilar de las Heras Dopereiro, 3 ",50001,"C/ de María Pilar de las Heras Dopereiro, 3 50001",Zaragoza,Zaragoza,,Aragón,,,,,41.6596276,-0.8621879,976 293 925,,,lajota@fabz.org,,,,,,,,,,,,,,,,,2013-06-07 20:14:06
Banco de Tiempo de Zaragoza A.VV. Las Fuentes,,Grupo/colectivo,Banco de tiempo - Municipal,"c/ Fray Luis Urbano, 27 - local 2",,"c/ Fray Luis Urbano, 27 - local 2 ",50002,"c/ Fray Luis Urbano, 27 - local 2 50002",Zaragoza,Zaragoza,,Aragón,,,,,41.6429234,-0.8532168,976 423 104,,,lasfuentes@fabz.org,,,,,,,,,,,,,,,,,2013-06-07 20:14:12
Banco de Tiempo de Zaragoza A.VV. Picarral,,Grupo/colectivo,Banco de tiempo - Municipal,"C/ Camino Juslibol, 36",,"C/ Camino Juslibol, 36 ",50015,"C/ Camino Juslibol, 36 50015",Zaragoza,Zaragoza,,Aragón,,,,,41.6713488,-0.8759211,976 731 300,,,picarral@fabz.org,,,,,,,,,,,,,,,,,2013-06-07 20:14:08
Banco de Tiempo del Bajo Deba,,Grupo/colectivo,Banco de tiempo - Municipal,C/ del Marqués de Valdespina,,C/ del Marqués de Valdespina ,48260,C/ del Marqués de Valdespina 48260,Ermua,Vizcaya,,País Vasco,,,,,43.1861263,-2.503011,943 179 919 / 695 777 986,,,bancodeltiempo@auzopolis.net,,,,,,,,,,,,,,,,,2013-06-07 20:14:19
Banco de Tiempo del Cercle Matern,,Grupo/colectivo,Banco de tiempo - Municipal,"C/ Forners, 38 bjos",Casal de la dona,"Casal de la dona - C/ Forners, 38 bjos",07006,"Casal de la dona - C/ Forners, 38 bjos 07006",Palma De Mallorca,Baleares,,Islas Baleares,,,,,39.5686457,2.6615947,670 478 434,,,bancodetiempo@circulomaterno.org,,,,,,,,,,,,,,,,,2013-06-10 00:04:36
Banco de Tiempo del Mercado Ecológico,,Grupo/colectivo,Banco de tiempo - Municipal,Pl. Bisbe Berenguer de Palou,,Pl. Bisbe Berenguer de Palou ,07003,Pl. Bisbe Berenguer de Palou 07003,Palma De Mallorca,Baleares,,Islas Baleares,,,,,39.5760043,2.6492129,971 603 193 / 670 478 434,,,bdtmercadoecologico@gmail.com,,,,,,,,,,,,,,,,,2013-06-10 00:06:52
Banco de Tiempo del Raval,Entre todos nos ayudamos,Grupo/colectivo,Banco de tiempo - Municipal,"C/ Sant Pau, 75-4-1",ibN Batuta ,"C/ Sant Pau, 75-4-1 ibN Batuta",08001,"C/ Sant Pau, 75-4-1 ibN Batuta 08001",Barcelona,Barcelona,Raval,Cataluña,Raval,,,Barrio,41.3779502,2.1708841,934410406,,,lolicatalana@hotmail.com,,,,,,,,,,,,,,,,,2013-10-28 09:14:57
Banco de Tiempo del Valle de Egües,,Grupo/colectivo,Banco de tiempo - Municipal,"C/ de Urbasa, 129",,"C/ de Urbasa, 129 ",31486,"C/ de Urbasa, 129 31486",Egües,Navarra,,Comunidad Foral de Navarra,,,,,42.8108214,-1.5880268,948 165 651,,,btiempcaf@egues.es,,,,,,,,,,,,,,,,,2013-06-07 20:14:41
Banco de Tiempo del Valle de Egüés,,Otros,Banco de tiempo - Municipal,C/ Urbasa 129,,C/ Urbasa 129 ,31621,C/ Urbasa 129 31621,Sarriguren,Navarra,Valle de Egüés,Comunidad Foral de Navarra,,,Valle de Egüés,Comarca,42.8108214,-1.5880268,948165651,,,,,,,2011,,,,,,,,,,,,,2014-03-05 10:51:53
Banco de Tiempo Dharma,"Banco del Tiempo Dharma, donde la utopía se hace realidad.",Asociación,Banco de tiempo - Municipal,C/ La Perdiu 1,,C/ La Perdiu 1 ,08184,C/ La Perdiu 1 08184,Palau-Solità i Plegamans,Barcelona,Palau-Solità i Plegamans,Cataluña,,,,Municipio,41.6017833,2.1852593,938644228,,,nuevatierraassoc@yahoo.es,,http://www.nuevatierra.org/bdt,http://www.nuevatierra.org/,2014,,,,,,,,,,,,,2014-01-28 09:49:14
Banco de Tiempo Ecolocal,,Grupo/colectivo,Banco de tiempo - Comunitario,"""La Rendija"" C/ San Hermenegildo 1",,"""La Rendija"" C/ San Hermenegildo 1 ",41003,"""La Rendija"" C/ San Hermenegildo 1 41003",Sevilla,Sevilla,,Andalucía,,,,,37.3983421,-5.9837626,,,,bdtecolocal@gmail.com,,http://ecolocal.es/banco_del_tiempo.html,,2007,,,,,,,,,,,,,2015-06-08 19:17:23
Banco de Tiempo El Dam de Ahesat,,Asociación,Banco de tiempo - Municipal,,, ,43820, 43820,Calafell,Tarragona,Baix Penedés,Cataluña,,,Baix Penedés,Comarca,41.1938386,1.5664556,686265212,,,dam.ahesat.org@gmail.com,ahesat@gmail.com,http://www.eldamdeahesat.blogspot.com/,http://www.ahesat.blogspot.com/,2014,,,,,,,,,,,,,2014-10-28 13:18:39
Banco de Tiempo Entrehoras Retiro,,Asamblea,Banco de tiempo - Comunitario,,, ,, ,Madrid,Madrid,Retiro,Comunidad de Madrid,,Retiro,,Distrito,40.406373,-3.682017,,,,bancodetiempo.asamblearetiro@gmail.com,,http://bancodetiemporetiro.wordpress.com/,,2012,,"Cambio una hora cuidando a tus hijos, por una hora de clases de cocina”. El banco de tiempo es un instrumento de desarrollo comunitario y cohesión social, a partir de un sistema de intercambio de servicios.  Por ejemplo, una persona mayor necesita compañía porque se encuentra sola y esa misma persona ofrece su tiempo para enseñar a coser botones a un chico joven que lo necesita.

La unidad de pago es la hora y una hora siempre es a cambio de otra hora, independientemente de los servicios y actividades que tu ofrezcas o demandes, es decir, vale lo mismo clases de informática, de inglés o un trabajo de fontanería.

Un banco de tiempo no es solamente un sistema de trueque por el cual los usuarios pueden ofrecer o demandar servicios o actividades sin que intervenga el dinero. Es también una  demostración de que es posible construir redes de apoyo mutuo y sistemas alternativos para afrontar las necesidades cotidianas, más allá de la riqueza monetaria que se posea individualmente.

Un banco de tiempo genera vínculos entre las personas y combate el individualismo y el aislamiento imperantes en nuestra sociedad. Es un sistema de creación de tejido social en el barrio, fomentando la relación entre los vecinos actualmente casi desaparecida. Esta crisis a unos niveles nos está perjudicando, pero a otros nos está humanizando y acercando.

En el marco del 15M, el banco de tiempo  tiene como finalidad incrementar la cooperación entre los ciudadanos y hacer crecer nuestro movimiento.",,,,,,,,,,,2013-06-19 11:14:43
Banco de Tiempo Entrevecinos de Valencia,,Asociación,Banco de tiempo - Comunitario,"Avenida Doctor Tomás Sala, nº 47 bajo",,"Avenida Doctor Tomás Sala, nº 47 bajo ",46017,"Avenida Doctor Tomás Sala, nº 47 bajo 46017",Valencia,Valencia,Valencia,Comunidad Valenciana,,,,,39.4475104,-0.3866238,655253502,963 10 71 24,,franbancotiempoentrevecinos@gmail.com,amigotesdelbancodeltiempo@gmail.com,http://bdte.hol.es/,,2013,,"Banco del tiempo ""entrevecinos""

La inscripcion la realizó uno de los socios,yo como adminstrador solamente corrijo algunos de los datos que estan erroneos o incompletos.
Es un banco del tiempo que no pertenece al ayuntamiento sino esta integrado en un proyecto solidario  de la Confederación de Asociaciones de la Comunidad de Valencia(CAVECOVA).
Saludos
Elías Sánchez",,,,,,,,,,,2014-10-29 16:57:40
Banco de Tiempo Escolares,,Grupo/colectivo,Banco de tiempo - Municipal,"Av. Fernández Ladreda, 48",,"Av. Fernández Ladreda, 48 ",33011,"Av. Fernández Ladreda, 48 33011",Oviedo,Asturias,,Principado de Asturias,,,,,43.3707337,-5.8330566,985 217 295,,,nuevasfamilias@yahoo.es,,,,,,,,,,,,,,,,,2013-06-07 20:14:47
Banco de Tiempo Fuengirola Mijas,,Asociación,Banco de tiempo - Comunitario,"Calle Rio Lanjaron, numero 14",Teteria Las Mil y Una Noches,"Teteria Las Mil y Una Noches - Calle Rio Lanjaron, numero 14",29651,"Teteria Las Mil y Una Noches - Calle Rio Lanjaron, numero 14 29651",Mijas,Malaga,Fuengirola y Mijas,Andalucía,,,,Municipio,36.5425472,-4.6371238,637526119,,,raquelmelgargarcia@gmail.com,,,,2013,,tenemos un blog: bdtfuengirola.wordpress.com,,,,,,,,,,,2013-10-15 17:55:10
Banco de Tiempo Inguralde,,Grupo/colectivo,Banco de tiempo - Municipal,Pº Dolores Ibarruri s/n,,Pº Dolores Ibarruri s/n ,48901,Pº Dolores Ibarruri s/n 48901,Barakaldo,Vizcaya,,País Vasco,,,,,43.2998368,-2.9893729,944 189 044,,,inforempleo@inguralde.com,,,,,,,,,,,,,,,,,2013-06-07 20:14:52
Banco de Tiempo Jacetania,,Grupo/colectivo,Banco de tiempo - Municipal,"C/ de Campoy Irigoyen, 4  - local",,"C/ de Campoy Irigoyen, 4  - local ",22700,"C/ de Campoy Irigoyen, 4 - local 22700",Jaca,Huesca,,Aragón,,,,,40.38,-3.86,675 988 738 / 659 113 833,,,btjacetania@ademup.org,,,,,,,,,,,,,,,,,2013-06-07 20:15:45
Banco de Tiempo Joven de la Comarca Filabres-Alhamilla,,Grupo/colectivo,Banco de tiempo - Municipal,"Glorieta de las Angustias, s/n",,"Glorieta de las Angustias, s/n ",04200,"Glorieta de las Angustias, s/n 04200",Tabernas,Almería,,Andalucía,,,,,40.38,-3.86,950 365 031,,,juventudfilabresalhamilla@gmail.com,,,,,,,,,,,,,,,,,2013-06-07 20:15:49
Banco de Tiempo La Bordeta,,Grupo/colectivo,Banco de tiempo - Municipal,"C/ Hospital de la Bordeta, 14",,"C/ Hospital de la Bordeta, 14 ",25001,"C/ Hospital de la Bordeta, 14 25001",Lleida,Lleida,,Cataluña,,,,,41.6175899,0.6200146,,,,marisagarciahorcajada@hotmail.com,,,,,,,,,,,,,,,,,2013-06-07 20:15:53
Banco de Tiempo La Roca Del Valles,,Grupo/colectivo,Banco de tiempo - Comunitario,c/Espronceda ,Nº 65 piso3º puerta 5ª,c/Espronceda  Nº 65 piso3º puerta 5ª,08430,c/Espronceda Nº 65 piso3º puerta 5ª 08430,La Roca Del Valles,Barcelona,,Cataluña,,,,,41.5865477,2.3265984,647470738,,,olgaperez1973@hotmail.com,,,,2013,,"Un banco de tiempo es un sistema de intercambio de servicios por tiempo. 
En el Banco del Tiempo la unidad de intercambio no es el dinero habitual sino una medida de tiempo, en nuestro caso el trabajo por hora. 
Es un sistema de intercambio de servicios por servicios. Propone la ventaja de fomentar las relaciones sociales y la igualdad entre distintos estratos económicos. 
En él el tiempo de cada participante se valora por igual, ya sea que él/ella es un principiante o un experto ampliamente capacitado y es además una herramienta para revitalizar la vida de la comunidad.
La salud de las comunidades depende de la creencia de que las acciones del presente tienen gran significado para el futuro. La más efectiva y eficiente forma de construir capital social es generando reciprocidad de un modo más amplio. De este modo, la confianza y los compromisos cívicos se reproducen automáticamente.
Ejercicio físico 
•	Clases (gimnasia, baile, taichi, fútbol) 
•	Entretenimiento o monitorización (partidos de fútbol, ir a correr…)
•	Arbitraje de partidos
Ocio 
•	Preparación de fiestas 
•	Interpretación en eventos o fiestas 
•	Juegos de mesa 
•	Danzas
•	Capoeira
•	Paseos en bici
•	Excursiones al monte
•	Malabares
Idiomas 
•	Clases de idiomas 
•	Conversación en idiomas 
•	Traducciones 
•	Interprete de idiomas 
Informática 
•	Clases de informática 
•	Instalar software 
•	Reparación y montaje de ordenadores 
•	Pasar textos a ordenador 
•	Montajes fotográficos o videos 
Belleza 
•	Maquillaje 
•	Peluquería 
Bricolaje 
•	Asesoramiento sobre ahorro de energía 
•	Reparaciones de bicis, motos, coches 
Arte 
•	Asesoramiento sobre decoración 
•	Teatro 
•	Pintura y dibujo 
•	Costura 
Cocina 
•	Clases de cocina (tradicional, vegetariana, étnica...) 
•	Asesoramiento sobre menús y preparación de recetas 
•	Elaboración de comidas (pan, tartas, mermeladas, conservas) 
•	Elaboración de comidas para cumpleaños y fiestas 
Asesoría y orientación 
•	Asesoramiento para preparación de eventos 
•	Asesoramiento en viajes (vacaciones, estudios, negocios...) 
•	Asesoramiento para redactar el curriculum vitae 
•	Asesoramiento legal 
•	Mediación en conflictos 
•	Asesoramiento y orientación sobre recursos sociales existentes en La Roca Del Valles
Atención a personas 
•	Lecturas, cuentacuentos 
•	Hacer recados 
•	Apoyo en mudanzas 
•	Escuchar
Banco del Tiempo de La Roca Del Valles 

Responsabilidad: 
EL Banco del Tiempo de La Roca Del Valles solo refiere los usuarios que dicen poder ofrecer un servicio. EL Banco del Tiempo de La Roca  no puede asegurar el rendimiento de ninguno de los usuarios del Banco del Tiempo por lo que nunca será el Banco del Tiempo de La Roca  responsable por ninguna lesión o daño a la propiedad experimentados durante las transacciones.
EL Banco del Tiempo de La Roca ofrece en su herramienta informática formas de conocer las experiencias que todos los usuarios han tenido mientras ofrecían servicios a otros usuarios del banco del tiempo.  

Limitaciones: 
Los servicios no están garantizados y puede haber situaciones cuando un proveedor de un servicio no llena las expectativas del que lo recibe. Pedimos la apreciación del esfuerzo que cada uno pone y esto es lo que hace que el Banco del Tiempo funcione.
Si hubiera un problema real con el servicio recibido el Banco del Tiempo de La Roca ofrece en su herramienta informática formas de conocer las experiencias que todos los usuarios han tenido mientras ofrecían servicios a otros usuarios del banco del tiempo. El Banco de Tiempo de La Roca  mediará dentro de sus capacidades en los conflictos entre usuarios que no se hayan podido arreglar y sus decisiones siempre serán finales y sin posibilidad de apelación. Si hubiera acciones irregulares el Banco del Tiempo de La Roca  podrá sancionar a los usuarios, desde obligarles a devolver el crédito obtenido hasta la expulsión del sistema. 

 Confidencialidad y privacidad: 
Uno de los criterios en los que se basa el Banco de Tiempo es en la confianza mutua. Todos los usuarios deben proteger la privacidad y confidencialidad de los otros usuarios. Un usuario puede llegar a ser expulsado de la comunidad por este motivo. La única excepción para compartir información es cuando un usuario sienta que la salud o seguridad de otro usuario está en peligro. 

 QUE HACER CUANDO QUIERE RECIBIR UN SERVICIO 
Para poder dar o recibir un servicio tiene que estar registrado en el Banco de Tiempo de La Roca y haber pasado un proceso de verificación.
Póngase en contacto con el Banco de Tiempo tan pronto como le sea posible y acuerde un lugar fecha para recibir el servicio seleccionado. Si deja un mensaje y el usuario no responde en unos días inténtelo de nuevo y si aún no lo logra contacte con el administrador. Olga Pérez Alcaide tel:647470738

QUE HACER Y QUE NO HACER 

Que hacer:   
- Asegúrese de que la otra persona entiende lo que va  hacer antes de que empiece a hacerlo 
- Contacte con el usuario por adelantado si no puede llegar a tiempo a ofrecer el servicio o si debe cancelarlo. 
- El recibidor del servicio se compromete a realizar el pago estipulado lo antes posible 
- Sea paciente y abierto más que crítico. Estamos para compartir y el hecho de aprender a conocernos ya es mucho. 
- Respete los demás, ya sea por religión creencias o pertenencia política. 
- Si solicita un servicio asegúrese de pagar por todos los materiales, partes o ingredientes necesarios. 

Que no hacer: 
- No fume en el lugar de otros usuarios sin su consentimiento. 
- Nunca acepte dinero ni propinas. 
- No use alcohol ni drogas mientras ofrece los servicios. (En el caso de ocurrir, será razón para la expulsión automática) 
- No compre alcohol ni tabaco a otros usuarios. 
  
Banco del Tiempo de La Roca Del Valles

",,,,,,,,,,,2013-12-19 11:22:42
Banco de Tiempo Lebrija,,Otros,Banco de tiempo - Municipal,"Barriada Blas Infante, s/n.",Centro Cívico Blas Infante,"Centro Cívico Blas Infante - Barriada Blas Infante, s/n.",41740,"Centro Cívico Blas Infante - Barriada Blas Infante, s/n. 41740",Lebrija,Sevilla,,Andalucía,,,,,36.9246665,-6.083178,,,,bancodeltimpolebrija@gmail.com,,,,2013,,En el Banco Del Tiempo Lebrija es una comunidad donde puedes intercambiar servicios con otros usuarios de la localidad usando el tiempo como moneda de cambio,,,,,,,,,,,2014-02-12 07:42:05
Banco de Tiempo Mancomunidad Madrid Sureste,,Grupo/colectivo,Banco de tiempo - Municipal,"C/ de Luís de Requesens, 2",,"C/ de Luís de Requesens, 2 ",25890,"C/ de Luís de Requesens, 2 25890",Villarejo De Salvanés,Madrid,,Comunidad de Madrid,,,,,40.1678741,-3.2765033,913 677 655 / 918 744 379,,,,,,,,,,,,,,,,,,,,2013-06-07 20:15:56
Banco de Tiempo Mataró,Banco del Tiempo de Mataró y cercanías,Asociación,Banco de tiempo - Municipal,"Sant Pelegri, 3",,"Sant Pelegri, 3 ",08301,"Sant Pelegri, 3 08301",Mataró,Barcelona,,Cataluña,,,,,41.5400816,2.4493299,93 7419160,,,,,http://www.bancdeltempsmataro.org/,,2006,,Banco del Tiempo de Mataró,,,,,,,,,,,2015-05-27 12:30:54
Banco de Tiempo Municipal de Leganés,,Otros,Banco de tiempo - Municipal,"C/ Del Charco ,23",1ª planta,"C/ Del Charco ,23 1ª planta",28911,"C/ Del Charco ,23 1ª planta 28911",Leganés,Madrid,,Comunidad de Madrid,,,,,40.3288472,-3.7686115,650936493,650936493,,,,http://www.bancodeltiempoleganes.org/,,2013,,"Banco del Tiempo municipal de Leganés, actualmente gestionado por la asociación Aibe Balcan",,,,,,,,,,,2015-04-20 19:20:11
Banco de Tiempo Musutruk - Ibarrekolanda,,Grupo/colectivo,Banco de tiempo - Municipal,"C/ Errondoko, 2",,"C/ Errondoko, 2 ",48015,"C/ Errondoko, 2 48015",Bilbao,Vizcaya,,País Vasco,,,,,43.2773531,-2.958716,665 474 215,,,musutruk07@gmail.com,,,,,,,,,,,,,,,,,2013-06-07 20:16:00
Banco de Tiempo Nervión - San Pablo - Santa Justa,Tiempo para dar; tiempo para recibir,Centro social,Banco de tiempo - Municipal,"Avenida Pedro Romero, s/n",,"Avenida Pedro Romero, s/n ",41007,"Avenida Pedro Romero, s/n 41007",Sevilla,Sevilla,,Andalucía,,,,,,,955473126,609904728,,bdtnervionsanpablo@sevilla.org,,,,2010,,"Además de los intercambios, el Banco del Tiempo Nervión - San Pablo - Santa Justa realiza actividades a nivel grupal, como reuniones de confianza, salidas de ocio y tiempo libre, desayunos y meriendas colectivas, Mercadillos del trueque, ...

Para más información, este es nuestro vídeo promocional
http://www.youtube.com/watch?v=x9SpiEaEPcU",,,,,,,,,,,2014-03-31 09:35:33
Banco de Tiempo Ovida,,Grupo/colectivo,Banco de tiempo - Municipal,"C/ Lena, 5",,"C/ Lena, 5 ",33006,"C/ Lena, 5 33006",Oviedo,Asturias,,Principado de Asturias,,,,,43.3519679,-5.8676691,902 350 902,,,info@ovida.es,,,,,,,,,,,,,,,,,2013-06-07 20:16:05
Banco de Tiempo Pont del Dimoni,,Grupo/colectivo,Banco de tiempo - Municipal,"C/ Santa Eugènia, 146",,"C/ Santa Eugènia, 146 ",17006,"C/ Santa Eugènia, 146 17006",Girona,Girona,,Cataluña,,,,,41.9776281,2.8072941,972 237 063,,,bdtpontdeldimoni@gmail.com,,,,,,,,,,,,,,,,,2013-06-07 20:16:08
Banco de Tiempo R-ciclo,,Grupo/colectivo,Banco de tiempo - Municipal,C/ del Ave María,,C/ del Ave María ,18009,C/ del Ave María 18009,Granada,Granada,,Andalucía,,,,,37.1705616,-3.5909801,,,,bancodeltiempor.ciclo@gmail.com,,,,,,,,,,,,,,,,,2013-06-07 20:16:11
Banco de Tiempo Ribagorza Central,,Grupo/colectivo,Banco de tiempo - Municipal,"C/ San Sebastián, 17, Campo",,"C/ San Sebastián, 17, Campo ",22450,"C/ San Sebastián, 17, Campo 22450",Campo,Huesca,,Aragón,,,,,42.4097942,0.3998579,974 550 114 / 679 197 632,,,ccastancampo@hotmail.com,,,,,,,,,,,,,,,,,2013-06-07 20:16:14
Banco de Tiempo Ribagorza Oriental,,Grupo/colectivo,Banco de tiempo - Municipal,"C/ Mayor, 4 - Casa Farré",,"C/ Mayor, 4 - Casa Farré ",22580,"C/ Mayor, 4 - Casa Farré 22580",Benabarre,Huesca,,Aragón,,,,,42.1087048,0.4803197,600 520 466,,,budaloke@gmail.com,,,,,,,,,,,,,,,,,2013-06-07 20:16:18
Banco de Tiempo San Cristóbal de Los Ángeles,,Grupo/colectivo,Banco de tiempo - Municipal,"Pl. de los Pinazos, 6",,"Pl. de los Pinazos, 6 ",28021,"Pl. de los Pinazos, 6 28021",Madrid,Madrid,,Comunidad de Madrid,,,,,40.3427663,-3.6903066,664 787 828,,,bancodeltiemposc@gmail.com,,,,,,,,,,,,,,,,,2013-06-07 20:16:22
Banco de Tiempo Sant Adrià,,Asamblea,Banco de tiempo - Comunitario,Carrer Orella nº2,,Carrer Orella nº2 ,08930,Carrer Orella nº2 08930,Sant Adrià de Besòs,Barcelona,Barri Casc Antic de Sant Adrià de Besòs,Cataluña,Casc Antic de Sant Adrià de Besòs,,,Barrio,41.434392,2.2140899,671629387,,,bdt.santadria@gmail.com,,http://santadria.bdtonline.org/,,2013,,,,,,,,,,,,,2013-09-10 09:47:55
Banco de Tiempo Sendotu,,Grupo/colectivo,Banco de tiempo - Municipal,"C/ Bailén Kalea, 5",,"C/ Bailén Kalea, 5 ",48003,"C/ Bailén Kalea, 5 48003",Bilbao,Vizcaya,,País Vasco,,,,,43.2590324,-2.9271418,944 160 420,,,bancotiemposendotu@sartu.org,,,,,,,,,,,,,,,,,2013-06-07 20:17:01
Banco de Tiempo Sofisma,,Grupo/colectivo,Banco de tiempo - Municipal,"C/ Virgen del Rosario, 7",,"C/ Virgen del Rosario, 7 ",35600,"C/ Virgen del Rosario, 7 35600",Puerto Del Rosario,Las Palmas,,Canarias,,,,,28.4982423,-13.8592781,622 585 771,,,sofismacanarias@hotmail.com,,,,,,,,,,,,,,,,,2013-06-07 20:18:52
Banco de Tiempo Sugus - Universidad de Sevilla,,Grupo/colectivo,Banco de tiempo - Municipal,,, ,, ,Sevilla,Sevilla,,Andalucía,,,,,37.3880961,-5.9823299,,,,,,,,,,,,,,,,,,,,,2013-06-07 20:16:28
Banco de Tiempo Tic Tac,,Grupo/colectivo,Banco de tiempo - Municipal,"C/ Lealtad, 14, 4º",,"C/ Lealtad, 14, 4º ",39002,"C/ Lealtad, 14, 4º 39002",Santander,Cantabria,,Cantabria,,,,,43.4609512,-3.8085278,942 221 149,,,cscantabria@ono.com,,,,,,,,,,,,,,,,,2013-06-07 20:16:31
Banco de Tiempo Universidad de Extremadura,,Grupo/colectivo,Banco de tiempo - Municipal,"Av. De la Universidad, s/n - Edif. Usos Múltiples",,"Av. De la Universidad, s/n - Edif. Usos Múltiples ",10071,"Av. De la Universidad, s/n - Edif. Usos Múltiples 10071",Cáceres,Cáceres,,Extremadura,,,,,39.471329,-6.370961,924 289 467,,,bancodetiempocud@unex.es,,,,,,,,,,,,,,,,,2013-06-07 20:16:34
Banco de Tiempo Universidad Pablo Olavide,BdT universitario,Otros,Banco de tiempo - Comunitario,Universidad Pablo Olavide. Unidad de Cultura y Participación social,"Ctra Utrera, km 1","Universidad Pablo Olavide. Unidad de Cultura y Participación social Ctra Utrera, km 1",41013,"Universidad Pablo Olavide. Unidad de Cultura y Participación social Ctra Utrera, km 1 41013",Sevilla,Sevilla,,Andalucía,,,,,37.354703,-5.937577,,,,bancodeltiempo@upo.es,,https://www.upo.es/upsc/Banco_del_Tiempo/index.jsp,,2015,,Banco de Tiempo Universitario,,,,,,,,,,,2015-07-23 14:43:38
Banco de Tiempo UPO,,Centro de estudios,Banco de tiempo - Comunitario,Carretera de Utrera Km.1,"Edificio Celestino Mutis, planta sótano despacho 4","Carretera de Utrera Km.1 Edificio Celestino Mutis, planta sótano despacho 4",41013,"Carretera de Utrera Km.1 Edificio Celestino Mutis, planta sótano despacho 4 41013",Sevilla,Sevilla,,Andalucía,,,,,37.3562108,-5.9498767,954977542,,,bancodeltiempo@upo.es,mjmolram@acu.upo.es,http://www.upo.es/upsc/Banco_del_Tiempo/index.jsp,,2015,,"La creación del Banco de Tiempo de la UPO fue propuesta por un grupo de estudiantes y profesores en la fase participativa del Plan Estratégico 2014-2016 de esta universidad. Fue una de las propuestas que surgió por parte de la comunidad universitaria que tuvo más apoyos y queda plasmada en la línea estratégica “Fortalecer nuestra política de participación social”. El Vicerrectorado de Estudiantes, Cultura y Compromiso Social retomó esta idea y desde la Unidad de Cultura y Participación Social lo hemos puesto en marcha con el asesoramiento de la Asociación El Enjambre sin Reina. Después de meses de trabajo, lo presentamos el pasado mes de febrero.",,,,,,,,,,,2015-06-08 19:18:57
Banco de Tiempo Xabia,,Asociación,Banco de tiempo - Comunitario,"C/ Rafael Echagüe, 3 ",,"C/ Rafael Echagüe, 3  ",03730,"C/ Rafael Echagüe, 3 03730",Javea,Alicante,Pueblo,Comunidad Valenciana,,,,Municipio,38.7895181,0.1593309,660862922,96 579 41 42,,bancodeltiempoxabia@gmail.com,ambendana@gmail.com,,,2011,,"somos un grupo de adultos que nos reunimos en el centro social, donde nos hay ayudado con todo incluso nos dejan una oficina para atención de público.",,,,,,,,,,,2014-02-17 22:29:41
Banco de Tiempo y Trueque de Jaén (BATITRUJA),Red de entidades,Red,Banco de tiempo - Comunitario,"C/ Juan Pedro Guiterrez Higueras, 3",,"C/ Juan Pedro Guiterrez Higueras, 3 ",23005,"C/ Juan Pedro Guiterrez Higueras, 3 23005",Jaén,Jaén,Toda la ciudad,Andalucía,,,,Municipio,37.7775764,-3.7971252,953 267 566,,,bdttjaen@gmail.com,,https://sites.google.com/site/bdtjaen,,2012,,"Datos de contacto:

Sede BATITRUJA Cáritas Interparroquial de Jaén
Dirección: C/ Maestro Bartolomé nº7.
Teléfono: 953 271 570
correo: bdtjaen.caritasinter@gmail.com

Sede BATITRUJA Centro Municipal de Servicios Sociales San Felipe
Dirección: C/ San Felipe nº4.
Teléfono: 953 190 815
correo: bdtjaen.aytosanfelipe@gmail.com

Sede BATITRUJA Centro Municipal de Servicios Sociales La Magdalena
Dirección: C/ Santo Domingo nº10.
Teléfono: 953 235 233
correo: bdtjaen.aytomagdalena@gmail.com

Sede BATITRUJA Centro Municipal de Servicios Sociales Polígono del Valle
Dirección: C/ Ronda del Valle s/n.
Teléfono: 953 259 467 
correo: bdtjaen.aytopvalle@gmail.com

Sede BATITRUJA Centro Municipal de Servicios Sociales Peñamefecit
Dirección: C/ Alicante s/n.
Teléfono: 953 259 461
correo: bdtjaen.aytopenamefecit@gmail.com

Sede BATITRUJA Federación Provincial de Asociaciones de Personas con Discapacidad Física y Orgánica de Jaén FEJIDIF
Dirección: C/ Juan Pedro Gutierrez Higueras nº 3.
           C/ Agustín Ródenas nº 3 (Centro Guadalinfo Peñamefecit
                                    gestionado por FEJIDIF) 
Teléfono: 953 267 566 
          953 222 887 (Centro Guadalinfo Peñamefecit gestionado por 
                       FEJIDIF) 
correo: bdtjaen.fejidif@gmail.com

Sede BATITRUJA Red Provincial de Voluntariado Lienzos
Dirección: C/ Arquitecto Berges nº 34-A.
Teléfono: 600 160 334
correo: bdtjaen.lienzos@gmail.com

Sede BATITRUJA Asociación de Vecinos PASSO - Centro Guadalinfo El Valle
Dirección: C/ Paseo Virgen del Rocío s/n.
Teléfono: 953 252 723
correo: bdtjaen.passo@gmail.com

Sede BATITRUJA Objetivo Vida - Centro Guadalinfo Magdalena
Dirección: C/ Martinez Molina nº9.
Teléfono: 953 241 011
correo: bdtjaen.objetivovida@gmail.com@gmail.com

",,,,,,,,,,,2013-06-13 18:08:02
Banco do Tempo Vigo,,Grupo/colectivo,Banco de tiempo - Municipal,Oficinas municipais de distrito Concello de Vigo,,Oficinas municipais de distrito Concello de Vigo ,,Oficinas municipais de distrito Concello de Vigo ,Vigo,Pontevedra,,Galicia,,,,,42.2405989,-8.7207268,600936491,,,,,http://vigo.bancodotempo.es/,,,,"vigo.bancodotempo.es
www.facebook.com/bancodotempovigo
twitter.com/bdtVigo
",,,,,,,,,,,2014-03-05 10:50:51
Banco Solidario de Les Corts,,Grupo/colectivo,Banco de tiempo - Municipal,"C/ Riera Blanca, 1-3 - Centre cultural Riera Blanca",,"C/ Riera Blanca, 1-3 - Centre cultural Riera Blanca ",08028,"C/ Riera Blanca, 1-3 - Centre cultural Riera Blanca 08028",Barcelona,Barcelona,,Cataluña,,,,,41.371042,2.1286069,934 480 238,,,bancsolidari@hotmail.com,,,,,,,,,,,,,,,,,2013-11-28 10:45:03
Banco Solidario Eixample,,Grupo/colectivo,Banco de tiempo - Municipal,"Av. Roma, 139, bxs.",,"Av. Roma, 139, bxs. ",08011,"Av. Roma, 139, bxs. 08011",Barcelona,Barcelona,,Cataluña,,,,,41.386353,2.1561417,934 532 879,,,avvee@suport.org,,,,,,,,,,,,,,,,,2013-06-07 19:41:13
Capsa de Valors Banc del temps dels treballadors de FGC,,Asociación,Banco de tiempo - Comunitario,"Carrer Cardenal de Sentmenat, 4",Sarrià,"Carrer Cardenal de Sentmenat, 4 Sarrià",08017,"Carrer Cardenal de Sentmenat, 4 Sarrià 08017",Barcelona,Barcelona,,Cataluña,,,,,41.3976218,2.125741,606011116,,,capsadevalorsfgc@gmail.com,,http://bancdeltempsfgc.wordpress.com/,,2013,,Banc dels Temps dels treballadors i jubilats de FGC,,,,,,,,,,,2014-03-31 09:26:35
Conseyu de Mocedá de Xixón (Consejo de Juventud de Gijón),,Plataforma,Banco de tiempo - Comunitario,Avenida Manuel Llaneza 68,Bajo,Avenida Manuel Llaneza 68 Bajo,33208,Avenida Manuel Llaneza 68 Bajo 33208,Xixón/Gijón,Asturias,Municipio de Xixón,Principado de Asturias,,,,Municipio,43.5344195,-5.6682448,985 15 50 72,,985 99 07 39,bancodeltiempo@cmx.es,,http://www.cmx.es/,,1996,,"El CMX es una federación de asociaciones juveniles que viene trabajando en el desarrollo del movimiento asociativo juvenil y la participación, apoyando el desarrollo de las asociaciones  a través de generar recursos formativos o de otro tipo para la mejora del funcionamiento interno de las asociaciones como del desarrollo de sus actividades. ",,,,,,,,,,,2014-01-28 09:51:58
"Kalube, centro de acción social",,Asociación,Banco de tiempo - Comunitario,Carretera de Illora s/n,,Carretera de Illora s/n ,18350,Carretera de Illora s/n 18350,Alomartes,Granada,,Andalucía,,,,,,,697 24 62 36,,,,,,,2012,,,,,,,,,,,,,2013-12-04 15:37:52
Lurey,,Individual,Banco de tiempo - Municipal,"Calle Aragón, 5",,"Calle Aragón, 5 ",08026,"Calle Aragón, 5 08026",Barcelona,Barcelona,,Cataluña,,,,,,,636946338,,,lurey12@hotmail.com,,,,,,,,,,,,,,,,,2014-05-12 08:14:14
Progresar ayudando UGT,,Grupo/colectivo,Banco de tiempo - Comunitario,Obispo Segura Sáez nº 8,,Obispo Segura Sáez nº 8 ,10003,Obispo Segura Sáez nº 8 10003,Cáceres,Cáceres,ciudad,Extremadura,,,,Municipio,39.4718523,-6.3788527,927 241350,678692418,,mollyhelen@gmail.com,discapacidadugt@gmail.com,,,,,,,,,,,,,,,,2014-03-31 09:33:44
Red de Trueque Parla,"Trueque, banco de tiempo, sanidad universal",Grupo/colectivo,Banco de tiempo - Comunitario,C/ Alcorcon S/N,"Edificio EI Momo, Planta 2, Local Alternativa Joven","Edificio EI Momo, Planta 2, Local Alternativa Joven - C/ Alcorcon S/N",28983,"Edificio EI Momo, Planta 2, Local Alternativa Joven - C/ Alcorcon S/N 28983",Parla,Madrid,Sur de Madrid,Comunidad de Madrid,,,Sur de Madrid,Comarca,40.2416708,-3.7749028,,,,redetruequeparla@gmail.com,,http://www.redetrueque.org/,,2012,,"Somos un grupo de personas que pretendemos buscar alternativas más humanas, solidarias y justas.

La situación de desesperación de muchas familias ante el desempleo de larga duración, los recortes de las ayudas sociales, los desahucios... hace muy difícil poder sobrevivir dentro de un sistema capitalista asfixiante que pretende imponer su tanto tienes tanto vales.

Nosotr@s nos negamos a quedarnos pasiv@s ante las injusticias y decidimos invertir nuestro tiempo, ilusión y esfuerzo en crear una red de trueque que devuelva la valía a las personas, el dinero no es lo importante, hay otras formas de relacionarse mucho más solidarias.

Así comenzamos hace un año a montar nuestros mercados de trueque donde las personas intercambian libremente pensando siempre en el bien común, en ser justos...

Ahora además de intercambiar bienes queremos dar un paso más para poder intercambiar servicios, donde lo importante es tu tiempo y todo lo que puedes ofrecer y necesitar.

Nadie es más que nadie, saldrás tanto más beneficiad@ cómo tu capacidad de dar y recibir, el límite lo pones tú.",,,,,,,,,,,2014-11-28 18:24:28
Silo de Tiempo de Tetuán,,Grupo/colectivo,Banco de tiempo - Municipal,"C/ San Enrique, 16, 1º",,"C/ San Enrique, 16, 1º ",28011,"C/ San Enrique, 16, 1º 28011",Madrid,Madrid,,Comunidad de Madrid,,,,,40.4560388,-3.7003123,,,,silodetiempo@gmail.com,,,,,,,,,,,,,,,,,2013-06-07 20:17:24
Tic Tac Bank,Banco del tiempo de ámbito nacional.,Plataforma,Banco de tiempo - Comunitario,,,,,,,,,,,,,,None,None,,,,tictac@tictacbank.com,,http://tictacbank.es/tictacbank/,,2012,,,,,,,,,,,,,2013-09-04 11:42:49
Tiempos de Trueque Paracuellos de Jarama,,Asociación,Banco de tiempo - Municipal,C/ Real de Burgos nº 50,,C/ Real de Burgos nº 50 ,28860,C/ Real de Burgos nº 50 28860,Paracuellos de Jarama,Madrid,este,Comunidad de Madrid,,,,,40.5066571,-3.5312863,,,,tiemposdetrueque@gmail.com,,,,2010,,"Somos cerca de 80 personas socias, disponemos de un espacio cedido por el Ayuntamiento que utilizamos de oficina donde hacer las entrevistas a las personas interesadas.

",,,,,,,,,,,2014-01-15 10:55:57
TruekeAdos Bidasoa,,Plataforma,Banco de tiempo - Comunitario,,, ,, ,Irun,Gipuzkoa,Valle del Bidasoa (Gipuzkoa-Nafarroa-Iparralde),País Vasco,,,Valle del Bidasoa (Gipuzkoa-Nafarroa-Iparralde),Comarca,43.3396649,-1.791888,,,,trukeadosbidasoa@gmail.com,,http://trukeados.net/,,2012,,"Es una plataforma de trueque formada por comunidades autogestionadas del valle del Bidasoa que participan distribuidamente en una asamblea. 

Es promotora de la red de bancos del tiempo TrukeAdos, que entre otros comparten la herramienta on-line de intercambios (Timebank evolucionado) y una wiki (trukeados.net), donde de momento participan además del Bidasoa, los valles-comarcas de Tolosa, Aiztondo, Malerreka y Debagoiena.",,,,,,,,,,,2013-06-12 22:09:25
Xarxa Municipal de Bancs del Temps,,Grupo/colectivo,Banco de tiempo - Municipal,"C/ de la Herrería, 10",4ª planta,"C/ de la Herrería, 10 4ª planta",07002,"C/ de la Herrería, 10 4ª planta 07002",Palma De Mallorca,Baleares,,Islas Baleares,,,,,39.5719167,2.6542949,971 214 027,,,xmbancsdeltemps@a-palma.es,,,,,,,,,,,,,,,,,2015-02-19 14:58:20
